network_code,receiver_code,receiver_type,receiver_latitude,receiver_longitude,receiver_elevation_m,p_arrival_sample,p_status,p_weight,p_travel_sec,s_arrival_sample,s_status,s_weight,source_id,source_origin_time,source_origin_uncertainty_sec,source_latitude,source_longitude,source_error_sec,source_gap_deg,source_horizontal_uncertainty_km,source_depth_km,source_depth_uncertainty_km,source_magnitude,source_magnitude_type,source_magnitude_author,source_mechanism_strike_dip_rake,source_distance_deg,source_distance_km,back_azimuth_deg,snr_db,coda_end_sample,trace_start_time,trace_category,trace_name
TA,109C,BH,32.8889,-117.1051,150,400,manual,0.5,29.63,2591,manual,0.5,603303263,22:24.5,0.92,32.1776,-115.2506,1.2471,79.573,4.19649,14.65,,2.5,ml,,,1.72,191.24,294.9,"[22.700000762939453, 22.399999618530273, 19.299999237060547]",5900,22:50.2,earthquake_local,109C.TA_20130615142249_EV
TA,109C,BH,32.8889,-117.1051,150,900,manual,0.5,10.3,1612,manual,0.5,603077603,23:02.1,0.88,32.9365,-116.4589,0.9847,69.908,4.07709,6.3,,2.6,ml,,,0.55,60.68,265.2,"[37.29999923706055, 43.099998474121094, 37.70000076293945]",5900,23:03.4,earthquake_local,109C.TA_20130617002302_EV
TA,109C,BH,32.8889,-117.1051,150,500,manual,0.5,10.3,1212,manual,0.5,603077603,23:02.1,0.88,32.9365,-116.4589,0.9847,69.908,4.07709,6.3,,2.6,ml,,,0.55,60.68,265.2,"[37.29999923706055, 45.29999923706055, 39.20000076293945]",3759,23:07.4,earthquake_local,109C.TA_20130617002306_EV
TA,109C,BH,32.8889,-117.1051,150,500,manual,0.5,23.89,2174,manual,0.5,604176191,06:18.2,1.17,32.585,-115.6542,0.8554,78.663,4.33247,14.14,,2.4,ml,,,1.26,140.1,284.3,"[33.79999923706055, 31.0, 26.700000762939453]",5900,06:37.1,earthquake_local,109C.TA_20130711090636_EV
TA,109C,BH,32.8889,-117.1051,150,500,manual,0.5,45.04,4513,autopicker,0.52,603251407,46:01.7,1.11,35.478,-118.305,1.0726,18.76,2.8164,0.69,,4.2,ml,,,2.77,307.75,158.6,"[35.79999923706055, 37.79999923706055, 32.0]",5900,46:41.8,earthquake_local,109C.TA_20130724164640_EV
TA,109C,BH,32.8889,-117.1051,150,500,manual,0.5,44.72,3925,manual,0.5,603499385,12:48.1,1.91,30.0557,-116.376,1.6231,240.187,,10,,2.9,ms,,,2.89,321.69,347.8,"[30.700000762939453, 37.20000076293945, 34.5]",5900,13:27.8,earthquake_local,109C.TA_20130811081326_EV
TA,109C,BH,32.8889,-117.1051,150,900,manual,0.5,18.61,2188,autopicker,0.79,605740664,53:36.0,0.98,33.201,-115.9696,1.1387,41.342,2.95436,8.97,,3.2,ml,,,1,111.57,252.2,"[39.900001525878906, 39.400001525878906, 38.29999923706055]",5900,53:45.6,earthquake_local,109C.TA_20130816035344_EV
TA,109C,BH,32.8889,-117.1051,150,800,manual,0.5,18.61,2088,autopicker,0.79,605740664,53:36.0,0.98,33.201,-115.9696,1.1387,41.342,2.95436,8.97,,3.2,ml,,,1,111.57,252.2,"[39.79999923706055, 39.79999923706055, 38.099998474121094]",5900,53:46.6,earthquake_local,109C.TA_20130816035345_EV
TA,109C,BH,32.8889,-117.1051,150,400,manual,0.5,18.61,1691,manual,0.5,605740664,53:36.0,0.98,33.201,-115.9696,1.1387,41.342,2.95436,8.97,,3.2,ml,,,1,111.57,252.2,"[39.20000076293945, 43.20000076293945, 37.099998474121094]",5900,53:50.6,earthquake_local,109C.TA_20130816035349_EV
TA,109C,BH,32.8889,-117.1051,150,900,manual,0.5,28.18,3349,autopicker,0.64,604176694,45:13.4,1.05,32.2118,-115.2247,0.8582,93.541,4.99798,26.92,,2.8,ml,,,1.73,191.91,293.5,"[20.600000381469727, 24.399999618530273, 16.799999237060547]",5575,45:32.6,earthquake_local,109C.TA_20130816164531_EV
TA,109C,BH,32.8889,-117.1051,150,700,manual,0.5,22.5,2360,autopicker,0.48,605740741,49:51.5,0.97,33.1461,-115.6079,1.2049,112.344,3.92779,11.4,,2.9,ml,,,1.28,142.77,258.9,"[39.20000076293945, 42.70000076293945, 32.599998474121094]",5900,50:07.0,earthquake_local,109C.TA_20130820025006_EV
TA,109C,BH,32.8889,-117.1051,150,800,manual,0.5,44.49,4808,autopicker,0.62,603471616,11:54.2,1.06,35.4708,-118.2814,0.6866,18.528,2.52752,3.7,,3.1,ml,,,2.75,306.23,158.9,"[17.5, 17.899999618530273, 9.300000190734863]",5900,12:30.6,earthquake_local,109C.TA_20130820071229_EV
TA,109C,BH,32.8889,-117.1051,150,700,manual,0.5,31.44,3057,autopicker,0.45,605740851,00:21.6,0.89,34.6727,-117.1802,1.4903,38.636,2.23575,14.95,,2.9,ml,,,1.78,197.98,178,"[30.700000762939453, 28.700000762939453, 27.5]",5900,00:46.1,earthquake_local,109C.TA_20130825120045_EV
TA,109C,BH,32.8889,-117.1051,150,900,manual,0.5,32.16,3072,manual,0.5,605740852,53:43.4,1.26,32.111,-115.1796,1.0698,96.177,5.73303,7.05,,2.3,ml,,,1.8,200.46,296,"[21.799999237060547, 20.899999618530273, 13.5]",5900,54:06.6,earthquake_local,109C.TA_20130825155405_EV
TA,109C,BH,32.8889,-117.1051,150,800,manual,0.5,44.61,4822,autopicker,0.67,608161610,50:28.2,1.06,35.483,-118.2079,2.0145,19.652,2.34632,0.56,,4.1,mwr,,,2.74,305.18,160.2,"[47.5, 49.599998474121094, 45.5]",5900,51:04.8,earthquake_local,109C.TA_20130825185103_EV
TA,109C,BH,32.8889,-117.1051,150,600,manual,0.5,45.16,4548,autopicker,0.68,603469578,59:18.4,1.08,35.4618,-118.2699,1.1993,18.518,2.28568,1.79,,3.7,ml,,,2.74,304.93,159.1,"[31.799999237060547, 33.0, 20.600000381469727]",5900,59:57.5,earthquake_local,109C.TA_20130825185956_EV
TA,109C,BH,32.8889,-117.1051,150,600,manual,0.5,28.81,2776,autopicker,0.65,604176893,56:57.8,0.89,32.2576,-115.3371,1.3346,87.948,4.08188,16.77,,3.1,ml,,,1.62,180.17,293.3,"[38.70000076293945, 40.79999923706055, 30.600000381469727]",5900,57:20.6,earthquake_local,109C.TA_20130827135719_EV
TA,109C,BH,32.8889,-117.1051,150,400,manual,0.5,20.67,1981,manual,0.5,605741132,53:48.3,0.94,34.0142,-117.2479,0.8649,64.258,2.91211,15.18,,2.6,ml,,,1.13,125.51,173.9,"[21.899999618530273, 18.700000762939453, 19.0]",5900,54:05.0,earthquake_local,109C.TA_20130829155403_EV
TA,109C,BH,32.8889,-117.1051,150,600,manual,0.5,30.58,2790,manual,0.5,605741211,29:54.1,0.97,34.5748,-116.8011,0.5884,31.376,2.96959,9.47,0.56,2.5,ml,,,1.7,189.11,188.7,"[19.299999237060547, 15.399999618530273, 11.5]",5900,30:18.6,earthquake_local,109C.TA_20130830133017_EV
TA,109C,BH,32.8889,-117.1051,150,900,manual,0.5,25.7,2692,autopicker,0.61,605741603,22:25.1,0.86,34.2921,-116.8544,0.52,33.658,2.78447,8.17,,2.1,ml,,,1.42,157.37,188.6,"[28.299999237060547, 27.100000381469727, 21.0]",5900,22:41.8,earthquake_local,109C.TA_20130908072240_EV
TA,109C,BH,32.8889,-117.1051,150,700,manual,0.5,23.72,2516,manual,0.5,605741665,37:07.1,0.99,34.0608,-117.7883,0.5809,64.875,3.46881,8.58,,2.5,ml,,,1.3,144.66,153.8,"[25.299999237060547, 18.200000762939453, 13.0]",5900,37:23.8,earthquake_local,109C.TA_20130911153722_EV
TA,109C,BH,32.8889,-117.1051,150,800,manual,0.5,18.93,2069,manual,0.5,605741717,21:29.8,1.11,33.787,-117.6366,1.2631,70.232,3.4553,3.5,,2.6,ml,,,1,111.22,153.4,"[28.299999237060547, 28.799999237060547, 20.0]",5900,21:40.7,earthquake_local,109C.TA_20130913192139_EV
TA,109C,BH,32.8889,-117.1051,150,600,manual,0.5,18.93,1869,manual,0.5,605741717,21:29.8,1.11,33.787,-117.6366,1.2631,70.232,3.4553,3.5,,2.6,ml,,,1,111.22,153.4,"[26.200000762939453, 28.600000381469727, 20.299999237060547]",5900,21:42.7,earthquake_local,109C.TA_20130913192141_EV
TA,109C,BH,32.8889,-117.1051,150,600,manual,0.5,28.17,3001,manual,0.5,603429459,25:35.7,0.77,32.3812,-115.2826,1.4238,80.308,4.12252,12.4,,4.1,mw,,,1.62,180.04,288.7,"[48.29999923706055, 47.20000076293945, 47.599998474121094]",5676,25:57.8,earthquake_local,109C.TA_20130914102556_EV
TA,109C,BH,32.8889,-117.1051,150,400,manual,0.5,28.1,2797,autopicker,0.53,603429459,25:35.7,0.77,32.3812,-115.2826,1.4238,80.308,4.12252,12.4,,4.1,mw,,,1.62,180.04,288.7,"[51.0, 49.29999923706055, 47.79999923706055]",5900,25:59.8,earthquake_local,109C.TA_20130914102558_EV
TA,109C,BH,32.8889,-117.1051,150,700,manual,0.5,13.89,1628,manual,0.5,604177299,53:35.2,0.92,32.8864,-116.196,1.0522,54.07,2.67804,9.35,,3,ml,,,0.77,85.07,270.4,"[38.599998474121094, 39.70000076293945, 32.20000076293945]",5900,53:42.1,earthquake_local,109C.TA_20130918125341_EV
TA,109C,BH,32.8889,-117.1051,150,400,manual,0.5,13.89,1328,manual,0.5,604177299,53:35.2,0.92,32.8864,-116.196,1.0522,54.07,2.67804,9.35,,3,ml,,,0.77,85.07,270.4,"[41.599998474121094, 39.099998474121094, 31.899999618530273]",4413,53:45.1,earthquake_local,109C.TA_20130918125344_EV
TA,109C,BH,32.8889,-117.1051,150,400,manual,0.5,21.96,1949,autopicker,0.62,605741816,44:52.9,0.9,33.9081,-116.3654,0.6423,34.737,2.86325,14.09,,2.5,ml,,,1.19,132.34,211.5,"[27.799999237060547, 27.200000762939453, 22.899999618530273]",4182,45:10.8,earthquake_local,109C.TA_20130918164509_EV
TA,109C,BH,32.8889,-117.1051,150,900,manual,0.5,24.64,2628,manual,0.5,605741832,43:54.8,1.06,34.0206,-117.7856,0.9173,58.655,3.07831,3.77,,3.8,ml,,,1.26,140.56,153.1,"[51.29999923706055, 49.79999923706055, 38.400001525878906]",5900,44:10.5,earthquake_local,109C.TA_20130919114409_EV
TA,109C,BH,32.8889,-117.1051,150,900,manual,0.5,23.81,2660,manual,0.5,605741833,06:33.1,1.06,34.053,-117.7875,1.0161,57.222,2.74351,5.21,,3.9,ml,,,1.29,143.85,153.6,"[56.29999923706055, 50.900001525878906, 40.79999923706055]",5900,06:47.9,earthquake_local,109C.TA_20130919120646_EV
TA,109C,BH,32.8889,-117.1051,150,700,manual,0.5,24.04,2409,manual,0.5,605741855,08:02.4,0.9,34.0684,-117.7909,0.7798,56.564,2.56178,10.55,,2.6,ml,,,1.31,145.52,153.8,"[41.400001525878906, 33.0, 20.799999237060547]",5900,08:19.4,earthquake_local,109C.TA_20130920090818_EV
TA,109C,BH,32.8889,-117.1051,150,600,manual,0.5,29.58,2843,autopicker,0.75,604177354,05:45.6,0.98,32.2204,-115.2365,1.5313,85.21,3.63473,20.59,,3,ml,,,1.71,190.51,293.4,"[33.599998474121094, 32.900001525878906, 28.0]",5900,06:09.2,earthquake_local,109C.TA_20130920180608_EV
TA,109C,BH,32.8889,-117.1051,150,700,manual,0.5,31.63,3256,manual,0.5,603494586,09:53.7,1.12,32.1315,-115.1736,1.1943,85.505,3.37628,9.17,,2.9,ml,,,1.8,199.98,295.3,"[28.200000762939453, 24.899999618530273, 18.399999618530273]",5900,10:18.3,earthquake_local,109C.TA_20130924181017_EV
TA,109C,BH,32.8889,-117.1051,150,700,manual,0.5,22.96,2364,autopicker,0.79,604177517,54:30.6,0.96,34.1305,-116.8168,0.7279,30.941,2.92361,7.83,,2.3,ml,,,1.26,140.29,191.1,"[29.100000381469727, 29.200000762939453, 24.200000762939453]",5900,54:46.6,earthquake_local,109C.TA_20131002055445_EV
TA,109C,BH,32.8889,-117.1051,150,600,manual,0.5,33.89,3211,autopicker,0.5,603516927,06:21.8,0.94,34.7018,-116.2729,1.133,15.195,2.33232,6.82,,4.3,ml,,,1.94,215.34,201.2,"[51.900001525878906, 47.79999923706055, 45.29999923706055]",5900,06:49.7,earthquake_local,109C.TA_20131006020648_EV
TA,109C,BH,32.8889,-117.1051,150,600,manual,0.5,27.47,2696,manual,0.5,603721725,18:03.0,0.85,32.3528,-115.3246,0.8103,85.381,4.19056,15.74,,2.7,ml,,,1.59,177.36,290.1,"[35.0, 40.20000076293945, 29.0]",5900,18:24.5,earthquake_local,109C.TA_20131009081823_EV
TA,109C,BH,32.8889,-117.1051,150,500,manual,0.5,21.76,2129,autopicker,0.67,603735856,43:33.9,0.92,33.1814,-115.6799,1.0002,87.183,3.18557,12.5,,2.9,ml,,,1.23,137.03,256.7,"[43.0, 42.20000076293945, 37.29999923706055]",5900,43:50.7,earthquake_local,109C.TA_20131014064349_EV
TA,109C,BH,32.8889,-117.1051,150,600,manual,0.5,21.7,2216,autopicker,0.57,603735859,16:15.1,1.01,33.185,-115.7041,1.2045,82.742,3.12541,7.44,,2.8,ml,,,1.21,134.93,256.3,"[26.5, 29.0, 22.5]",5900,16:30.8,earthquake_local,109C.TA_20131014071629_EV
TA,109C,BH,32.8889,-117.1051,150,400,manual,0.5,28.59,2510,manual,0.5,603753274,17:09.9,0.93,32.2215,-115.2613,1.2508,91.813,3.6294,23.16,,2.9,ml,,,1.69,188.32,293.6,"[25.399999618530273, 23.0, 28.299999237060547]",5900,17:34.5,earthquake_local,109C.TA_20131023041733_EV
TA,109C,BH,32.8889,-117.1051,150,700,manual,0.5,30.14,3116,autopicker,0.7,603762166,15:08.1,1.33,32.1392,-115.2274,1.3292,175.796,7.33965,12.48,,3.7,ml,,,1.75,195.04,295.7,"[50.599998474121094, 55.20000076293945, 45.20000076293945]",5900,15:31.3,earthquake_local,109C.TA_20131028111530_EV
TA,109C,BH,32.8889,-117.1051,150,400,manual,0.5,29.09,2820,autopicker,0.5,603763562,38:22.2,1.2,32.1642,-115.2305,0.548,126.517,7.93852,17.17,,2.7,ml,,,1.74,193.58,295,"[19.799999237060547, 18.299999237060547, 12.399999618530273]",5900,38:47.3,earthquake_local,109C.TA_20131028173846_EV
TA,109C,BH,32.8889,-117.1051,150,600,manual,0.5,30.82,2995,autopicker,0.55,603763563,32:03.3,1.35,32.1388,-115.196,0.8394,129.725,6.82046,8.55,,2.6,ml,,,1.78,197.73,295.4,"[26.5, 26.299999237060547, 19.200000762939453]",5900,32:28.2,earthquake_local,109C.TA_20131028203227_EV
TA,109C,BH,32.8889,-117.1051,150,800,manual,0.5,22.35,2420,autopicker,0.61,603766413,08:25.3,0.95,34.0971,-117.4393,0.6637,53.148,2.79619,9.55,,2.4,ml,,,1.24,137.56,166.9,"[24.0, 22.600000381469727, 18.399999618530273]",5900,08:39.7,earthquake_local,109C.TA_20131031120838_EV
TA,109C,BH,32.8889,-117.1051,150,700,manual,0.5,29.73,2834,manual,0.5,603766616,30:01.1,0.96,34.4833,-116.5101,0.889,26.526,2.55923,11.21,,2.6,ml,,,1.67,185.25,197.5,"[24.899999618530273, 21.299999237060547, 14.699999809265137]",5900,30:23.8,earthquake_local,109C.TA_20131031213022_EV
TA,109C,BH,32.8889,-117.1051,150,700,manual,0.5,34.41,3322,manual,0.5,603770183,18:37.4,0.97,31.1976,-115.6771,1.6081,182.794,,17.07,,3.1,ml,,,2.08,231,324.7,"[27.899999618530273, 25.5, 22.5]",5900,19:04.8,earthquake_local,109C.TA_20131102061903_EV
TA,109C,BH,32.8889,-117.1051,150,800,manual,0.5,28.81,2839,manual,0.5,603778091,19:09.2,0.89,32.2216,-115.344,1.1805,87.353,3.03219,13.11,,3.4,ml,,,1.63,181.2,294.6,"[50.900001525878906, 54.099998474121094, 44.0]",5900,19:30.0,earthquake_local,109C.TA_20131107091928_EV
TA,109C,BH,32.8889,-117.1051,150,400,manual,0.5,29.16,2849,autopicker,0.49,603798943,31:24.0,1.15,32.1809,-115.2621,0.9827,93.177,5.134,21.17,,2.8,ml,,,1.71,190.1,294.9,"[26.299999237060547, 31.899999618530273, 22.5]",5900,31:49.2,earthquake_local,109C.TA_20131120183148_EV
TA,109C,BH,32.8889,-117.1051,150,800,manual,0.5,10.84,1553,manual,0.5,603823930,36:35.2,0.83,33.0171,-116.4407,0.9419,37.238,2.86962,11.79,,3.1,ml,,,0.57,63.73,257.3,"[55.099998474121094, 63.79999923706055, 53.900001525878906]",5900,36:38.0,earthquake_local,109C.TA_20131130113637_EV
TA,109C,BH,32.8889,-117.1051,150,700,manual,0.5,10.84,1453,manual,0.5,603823930,36:35.2,0.83,33.0171,-116.4407,0.9419,37.238,2.86962,11.79,,3.1,ml,,,0.57,63.73,257.3,"[56.5, 64.5, 54.70000076293945]",3812,36:39.0,earthquake_local,109C.TA_20131130113638_EV
TA,109C,BH,32.8889,-117.1051,150,900,manual,0.5,10.85,1664,manual,0.5,603823936,10:12.5,0.83,33.0064,-116.4343,1.2497,36.722,3.02144,14.56,,3,ml,,,0.58,64.06,258.4,"[56.20000076293945, 61.0, 50.79999923706055]",3712,10:14.3,earthquake_local,109C.TA_20131130151013_EV
TA,109C,BH,32.8889,-117.1051,150,500,manual,0.5,10.85,1264,manual,0.5,603823936,10:12.5,0.83,33.0064,-116.4343,1.2497,36.722,3.02144,14.56,,3,ml,,,0.58,64.06,258.4,"[57.599998474121094, 60.599998474121094, 54.5]",3956,10:18.3,earthquake_local,109C.TA_20131130151017_EV
TA,109C,BH,32.8889,-117.1051,150,800,manual,0.5,26.98,2599,autopicker,0.56,603918264,47:59.8,0.76,33.9736,-118.4557,0.9391,40.366,2.31825,16.63,0.39,3,ml,,,1.56,173.92,133.4,"[25.600000381469727, 21.399999618530273, 19.0]",3559,48:18.7,earthquake_local,109C.TA_20140103194817_EV
TA,109C,BH,32.8889,-117.1051,150,400,manual,0.5,26.86,2244,autopicker,0.62,604647161,33:43.5,0.8,33.9863,-118.4408,0.5784,52.223,2.88903,15.66,,2.1,ml,,,1.56,173.9,134.1,"[16.700000762939453, 16.100000381469727, 16.299999237060547]",5900,34:06.3,earthquake_local,109C.TA_20140108053405_EV
TA,109C,BH,32.8889,-117.1051,150,500,manual,0.5,34.07,2994,manual,0.5,603953501,59:51.1,1.13,31.2519,-115.8841,0.615,133.472,6.229,3.97,,3.1,ml,,,1.93,215.04,327.9,"[29.0, 26.100000381469727, 22.200000762939453]",5900,00:20.2,earthquake_local,109C.TA_20140110120019_EV
TA,109C,BH,32.8889,-117.1051,150,700,manual,0.5,21.77,2587,manual,0.5,603962507,35:19.5,0.68,34.1433,-117.4472,1.3752,43.674,2.06631,10.71,0.41,4.33,mb,,,1.28,142.71,167,"[64.9000015258789, 63.70000076293945, 62.70000076293945]",5900,35:34.2,earthquake_local,109C.TA_20140115093533_EV
TA,109C,BH,32.8889,-117.1051,150,900,manual,0.5,23.2,2392,autopicker,0.72,603979878,40:08.4,0.87,32.9288,-115.6752,0.678,54.232,3.3605,13.95,,2.1,ml,,,1.2,133.84,268.5,"[13.300000190734863, 16.200000762939453, 9.0]",5900,40:22.6,earthquake_local,109C.TA_20140120194021_EV
TA,109C,BH,32.8889,-117.1051,150,800,manual,0.5,21.86,2408,autopicker,0.53,604032072,59:17.3,0.82,34.0523,-117.5505,0.7012,27.176,2.06562,18.49,,3.1,ml,,,1.22,135.51,162.1,"[41.29999923706055, 38.900001525878906, 33.5]",5900,59:31.2,earthquake_local,109C.TA_20140203065930_EV
TA,109C,BH,32.8889,-117.1051,150,700,manual,0.5,43.06,3889,manual,0.5,604033996,31:18.3,0.89,35.0164,-119.1075,1.2444,34.67,2.38331,16.27,,3.6,ml,,,2.7,299.9,141.3,"[24.299999237060547, 22.899999618530273, 16.600000381469727]",5900,31:54.4,earthquake_local,109C.TA_20140204053153_EV
TA,109C,BH,32.8889,-117.1051,150,900,manual,0.5,30.69,3427,autopicker,0.7,604035242,21:46.3,1.14,32.1576,-115.1788,0.5227,70.735,4.02981,10.33,,3.1,ml,,,1.78,198.32,294.7,"[30.0, 31.0, 25.700000762939453]",5900,22:08.0,earthquake_local,109C.TA_20140204132207_EV
TA,109C,BH,32.8889,-117.1051,150,700,manual,0.5,36.57,3456,autopicker,0.55,604039261,16:01.2,1.12,31.7632,-115.0128,0.8617,76.068,4.52957,10.97,,3,ml,,,2.1,233.22,302.9,"[17.299999237060547, 17.0, 11.600000381469727]",5900,16:30.8,earthquake_local,109C.TA_20140207231629_EV
TA,109C,BH,32.8889,-117.1051,150,500,automatic,0.6,35.75,3230,automatic,0.55,ci11422090,42:18.8,,31.1185,-115.7905,,,,7,,3,ml,,,2.09487,232.53,143.837,"[21.799999237060547, 25.100000381469727, 14.699999809265137]",4825,42:49.6,earthquake_local,109C.TA_20140208044249_EV
TA,109C,BH,32.8889,-117.1051,150,600,manual,0.5,10.08,1280,manual,0.5,604043940,31:04.6,0.81,33.1986,-116.6383,0.658,25.201,2.10666,17.62,,2.83,ml,,,0.5,55.51,231.9,"[56.79999923706055, 54.20000076293945, 53.29999923706055]",5900,31:08.7,earthquake_local,109C.TA_20140213063107_EV
TA,109C,BH,32.8889,-117.1051,150,600,manual,0.5,25.33,2457,manual,0.5,605640619,17:19.3,0.79,34.3077,-117.5133,0.5336,23.269,2.37116,15.01,0.41,2.22,ml,,,1.46,161.86,166.3,"[22.100000381469727, 22.5, 16.700000762939453]",3333,17:38.7,earthquake_local,109C.TA_20140215121737_EV
TA,109C,BH,32.8889,-117.1051,150,800,manual,0.5,33.57,3283,autopicker,0.53,604056978,00:02.4,1.03,31.563,-115.5018,0.9084,51.856,3.85249,6.05,,3.4,ml,,,1.9,210.84,314.6,"[44.900001525878906, 44.099998474121094, 35.79999923706055]",5900,00:28.0,earthquake_local,109C.TA_20140219040026_EV
TA,109C,BH,32.8889,-117.1051,150,800,manual,0.5,33.64,3321,autopicker,0.59,604056670,12:49.3,1.05,31.5637,-115.4651,0.9146,51.042,4.22186,6.44,,3.2,ml,,,1.92,213.28,314,"[37.5, 37.099998474121094, 31.200000762939453]",5900,13:14.9,earthquake_local,109C.TA_20140219041313_EV
TA,109C,BH,32.8889,-117.1051,150,700,manual,0.5,22.41,2379,autopicker,0.46,610207908,38:38.8,1.03,33.1589,-115.6525,0.4947,111.605,5.13866,13.7,,2,ml,,,1.25,138.98,258,"[14.699999809265137, 18.5, 11.899999618530273]",5900,38:54.2,earthquake_local,109C.TA_20140219053853_EV
TA,109C,BH,32.8889,-117.1051,150,700,manual,0.5,33.39,3196,manual,0.5,605640685,23:44.3,1,31.2356,-115.9226,1.0033,111.563,4.9171,8.47,,2.8,ml,,,1.93,214.66,329,"[37.0, 34.5, 32.5]",5900,24:10.7,earthquake_local,109C.TA_20140224082409_EV
TA,109C,BH,32.8889,-117.1051,150,700,manual,0.5,30.97,2854,manual,0.5,604087256,12:09.5,0.79,34.2825,-118.5516,1.1967,38.583,2.64342,17.11,,2.7,ml,,,1.84,204.75,138.6,"[21.5, 21.700000762939453, 15.699999809265137]",5900,12:33.5,earthquake_local,109C.TA_20140303001232_EV
TA,109C,BH,32.8889,-117.1051,150,800,manual,0.5,21.92,2385,manual,0.5,604090211,48:00.9,0.79,34.1118,-117.4096,0.8663,37.124,2.28465,10.87,0.42,2.58,ml,,,1.25,138.56,168.1,"[25.799999237060547, 29.700000762939453, 22.799999237060547]",5900,48:14.8,earthquake_local,109C.TA_20140304064813_EV
TA,109C,BH,32.8889,-117.1051,150,900,manual,0.5,41.62,3920,manual,0.5,604091440,24:23.4,2.77,31.2519,-119.4824,1.6749,176.446,8.89645,9,,4.9,mw,,,2.6,288.66,50.4,"[40.29999923706055, 40.5, 33.5]",5900,24:56.0,earthquake_local,109C.TA_20140305022455_EV
