network_code,receiver_code,receiver_type,receiver_latitude,receiver_longitude,receiver_elevation_m,p_arrival_sample,p_status,p_weight,p_travel_sec,s_arrival_sample,s_status,s_weight,source_id,source_origin_time,source_origin_uncertainty_sec,source_latitude,source_longitude,source_error_sec,source_gap_deg,source_horizontal_uncertainty_km,source_depth_km,source_depth_uncertainty_km,source_magnitude,source_magnitude_type,source_magnitude_author,source_mechanism_strike_dip_rake,source_distance_deg,source_distance_km,back_azimuth_deg,snr_db,coda_end_sample,trace_start_time,trace_category,trace_name
TA,109C,BH,32.8889,-117.1051,150,700,manual,0.5,6.37,1113,manual,0.5,13494111,17:30.5,0.39,33.1129,-116.92,0.8789,60.755,4.4953,15,,2.7,ml,,,0.27,30.27,214.9,"[58.79999923706055, 54.099998474121094, 54.0]",1804,17:29.8,earthquake_local,109C.TA_20080322071728_EV
TA,109C,BH,32.8889,-117.1051,150,900,manual,0.6,15.69,2032,manual,0.57,ci10321393,35:16.1,nan,32.6723333,-116.1146667,0.33,128,0.54,9.29,0.85,1.91,ml,CI,,0.8618,95.84,104.8,"[21.0, 25.100000381469727, 16.5]",3100,35:22.8,earthquake_local,109C.TA_20080430053521_EV
TA,109C,BH,32.8889,-117.1051,150,500,manual,0.62,12.74,1430,manual,0.58,ci10321401,14:47.4,nan,33.1758333,-116.3511667,0.26,47,0.29,11.35,1.17,2.17,ml,CI,,0.695,77.29,65.8,"[31.200000762939453, 37.099998474121094, 26.799999237060547]",2055,14:55.2,earthquake_local,109C.TA_20080430061454_EV
TA,109C,BH,32.8889,-117.1051,150,900,manual,0.5,14.8,1932,manual,0.5,10910429,55:35.1,0.3,33.4108,-116.4365,0.9797,32.065,2.419,10.16,,3.5,mb,,,0.77,85.1,227.3,"[64.4000015258789, 66.5, 63.099998474121094]",2556,55:40.9,earthquake_local,109C.TA_20080501035539_EV
TA,109C,BH,32.8889,-117.1051,150,800,manual,0.58,14.13,1811,manual,0.58,ci10321569,38:24.3,nan,33.4425,-116.451,0.25,29,0.26,9.08,0.75,2.37,ml,CI,,0.7783,86.56,44.9,"[35.20000076293945, 34.70000076293945, 32.0]",2380,38:30.5,earthquake_local,109C.TA_20080501043829_EV
TA,109C,BH,32.8889,-117.1051,150,900,manual,0.5,9.39,1537,manual,0.5,10925153,16:29.1,0.24,33.2049,-116.7267,0.8861,50.368,2.3464,10,,3.7,ml,,,0.45,49.77,225.3,"[65.9000015258789, 69.19999694824219, 65.80000305175781]",2053,16:29.5,earthquake_local,109C.TA_20080504181628_EV
TA,109C,BH,32.8889,-117.1051,150,400,manual,0.57,15.87,1533,manual,0.57,ci14366256,55:47.5,nan,32.676,-116.102,0.31,95,0.4,9.35,0.81,1.59,ml,CI,,0.8713,96.89,104.4,"[14.199999809265137, 15.5, 13.0]",3199,55:59.3,earthquake_local,109C.TA_20080504195558_EV
TA,109C,BH,32.8889,-117.1051,150,800,manual,0.61,14.57,1817,manual,0.57,ci14366760,27:32.8,nan,33.4795,-116.4621667,0.21,108,0.36,11.73,0.51,1.75,ml,CI,,0.7985,88.8,42.5,"[15.600000381469727, 18.399999618530273, 13.899999618530273]",2438,27:39.4,earthquake_local,109C.TA_20080507112738_EV
TA,109C,BH,32.8889,-117.1051,150,500,manual,0.7,12.35,1355,manual,0.7,ci14367144,02:30.6,nan,33.0386667,-117.8526667,0.33,147,0.57,5.71,,2.08,ml,CI,,0.646,71.84,283.2,"[29.600000381469727, 29.700000762939453, 22.600000381469727]",2117,02:38.0,earthquake_local,109C.TA_20080508160236_EV
TA,109C,BH,32.8889,-117.1051,150,800,manual,0.5,15.05,1807,manual,0.5,10939505,38:07.4,0.29,33.4251,-116.4148,0.9512,31.18,2.6055,9.67,,4.9,mb,,,0.79,87.65,227.5,"[61.400001525878906, 66.9000015258789, 60.20000076293945]",2167,38:14.4,earthquake_local,109C.TA_20080509223813_EV
TA,109C,BH,32.8889,-117.1051,150,600,manual,0.57,13.83,1595,manual,0.57,ci14367688,33:19.9,nan,33.3808333,-116.4021667,0.24,50,0.36,11.97,0.76,1.77,ml,CI,,0.7672,85.32,50.3,"[24.700000762939453, 23.299999237060547, 22.799999237060547]",2294,33:27.7,earthquake_local,109C.TA_20080510083326_EV
TA,109C,BH,32.8889,-117.1051,150,500,manual,0.54,16.74,1678,manual,0.57,ci14369456,53:06.6,nan,32.6971667,-116.0398333,0.28,118,0.43,4.18,0.77,1.79,ml,CI,,0.9174,102.02,102.4,"[24.100000381469727, 29.600000381469727, 23.5]",2696,53:18.4,earthquake_local,109C.TA_20080518095317_EV
TA,109C,BH,32.8889,-117.1051,150,700,manual,0.54,16.54,1911,manual,0.54,ci10325829,07:27.8,nan,32.687,-116.0431667,0.41,130,0.68,7.64,1.92,1.91,ml,CI,,0.9169,101.97,103,"[23.5, 25.0, 29.5]",2955,07:37.3,earthquake_local,109C.TA_20080520080736_EV
TA,109C,BH,32.8889,-117.1051,150,500,manual,0.5,16.01,1409,manual,0.5,11533752,32:06.9,0.68,32.5129,-117.8671,1.1261,170.049,5.8445,1.92,,3.4,ml,,,0.74,82.73,59.5,"[56.400001525878906, 66.5, 57.20000076293945]",2103,32:17.9,earthquake_local,109C.TA_20080525053216_EV
TA,109C,BH,32.8889,-117.1051,150,600,manual,0.56,14.57,1658,manual,0.56,ci10326737,05:23.9,nan,33.6481667,-116.7258333,0.23,39,0.26,14.27,0.28,2.26,ml,CI,,0.8212,91.32,22.8,"[30.200000762939453, 31.600000381469727, 27.799999237060547]",2415,05:32.5,earthquake_local,109C.TA_20080526190531_EV
TA,109C,BH,32.8889,-117.1051,150,800,manual,0.6,6.82,1315,manual,0.55,ci10100482,24:26.8,nan,32.5478333,-116.973,0.13,260,0.88,6.29,1.31,1.74,ml,CI,,0.3579,39.8,162,"[17.600000381469727, 15.699999809265137, 9.600000381469727]",2521,24:25.7,earthquake_local,109C.TA_20080529082424_EV
TA,109C,BH,32.8889,-117.1051,150,800,manual,0.53,16.98,2020,manual,0.53,ci14371532,49:48.7,nan,33.1856667,-116.0338333,0.39,45,0.38,11.67,1.22,1.71,ml,CI,,0.9473,105.34,72,"[17.100000381469727, 15.5, 15.600000381469727]",3199,49:57.7,earthquake_local,109C.TA_20080531074956_EV
TA,109C,BH,32.8889,-117.1051,150,800,manual,0.57,15.92,1976,manual,0.57,ci14371568,25:30.2,nan,32.6895,-116.0601667,0.29,120,0.37,9.98,0.85,1.49,ml,CI,,0.9023,100.35,103.1,"[13.399999618530273, 9.5, 8.899999618530273]",3199,25:38.1,earthquake_local,109C.TA_20080531122537_EV
TA,109C,BH,32.8889,-117.1051,150,900,manual,0.55,12.9,1862,manual,0.61,ci10329597,47:40.7,nan,33.0166667,-116.2596667,0.24,59,0.32,4.95,,1.26,ml,CI,,0.7222,80.31,80,"[11.199999809265137, 12.399999618530273, 5.599999904632568]",3199,47:44.6,earthquake_local,109C.TA_20080605084743_EV
TA,109C,BH,32.8889,-117.1051,150,700,manual,0.61,13.7,1683,manual,0.61,ci14376568,46:30.1,nan,33.4025,-116.4353333,0.2,66,0.33,14.27,0.38,1.53,ml,CI,,0.7603,84.55,47.7,"[21.200000762939453, 19.299999237060547, 16.399999618530273]",2309,46:36.8,earthquake_local,109C.TA_20080623064635_EV
TA,109C,BH,32.8889,-117.1051,150,900,manual,0.56,16.01,2075,manual,0.54,ci14376576,33:42.8,nan,33.7941667,-117.0531667,0.24,36,0.28,16.18,0.51,2.08,ml,CI,,0.9039,100.52,2.8,"[27.899999618530273, 30.700000762939453, 26.299999237060547]",3100,33:49.8,earthquake_local,109C.TA_20080623083348_EV
TA,109C,BH,32.8889,-117.1051,150,700,manual,0.76,6.54,1165,manual,0.63,ci14376968,41:46.9,nan,32.5938333,-117.2696667,0.1,276,0.47,16.98,0.79,1.84,ml,CI,,0.3253,36.18,205.1,"[18.899999618530273, 18.5, 15.199999809265137]",1953,41:46.5,earthquake_local,109C.TA_20080625124145_EV
TA,109C,BH,32.8889,-117.1051,150,700,manual,0.55,5.01,1040,manual,0.59,ci14380452,44:32.4,nan,33.0291667,-117.3321667,0.19,251,0.65,10.55,1.33,1.26,ml,CI,,0.2367,26.32,306.3,"[24.399999618530273, 18.899999618530273, 17.0]",1520,44:30.4,earthquake_local,109C.TA_20080712024429_EV
TA,109C,BH,32.8889,-117.1051,150,800,manual,0.73,6.52,1262,manual,0.65,ci14385772,23:15.8,nan,32.597,-117.2743333,0.14,276,0.57,15.7,0.32,1.68,ml,CI,,0.3241,36.05,206,"[27.700000762939453, 26.200000762939453, 27.5]",2053,23:14.3,earthquake_local,109C.TA_20080805052313_EV
TA,109C,BH,32.8889,-117.1051,150,900,manual,0.54,15.52,2030,manual,0.59,ci14387232,36:11.0,nan,32.6473333,-116.1276667,0.33,186,0.57,9.02,0.81,1.58,ml,CI,,0.858,95.42,106.6,"[14.600000381469727, 19.0, 16.399999618530273]",2817,36:17.5,earthquake_local,109C.TA_20080813043616_EV
TA,109C,BH,32.8889,-117.1051,150,500,manual,0.59,16.87,1696,manual,0.56,ci14387920,24:22.6,nan,32.6578333,-116.0401667,0.34,172,0.4,9.99,0.74,2.36,ml,CI,,0.9263,103.01,104.8,"[28.600000381469727, 32.400001525878906, 27.299999237060547]",3100,24:34.5,earthquake_local,109C.TA_20080817192433_EV
TA,109C,BH,32.8889,-117.1051,150,500,manual,0.68,10.8,1199,manual,0.68,ci10346885,20:10.3,nan,32.9416667,-117.7543333,0.44,168,0.93,5.72,,2.11,ml,CI,,0.5486,61.01,275.4,"[17.5, 16.600000381469727, 14.0]",2165,20:16.1,earthquake_local,109C.TA_20080903152015_EV
TA,109C,BH,32.8889,-117.1051,150,500,manual,0.5,17.06,1687,manual,0.5,11265505,52:25.8,0.29,32.7208,-116.0321,0.7716,35.335,3.3226,12.11,,3.5,ml,,,0.92,102.21,280.8,"[32.20000076293945, 43.20000076293945, 36.0]",3100,52:37.9,earthquake_local,109C.TA_20080911145236_EV
TA,109C,BH,32.8889,-117.1051,150,800,manual,0.5,5.26,1153,manual,0.5,12071632,43:51.3,0.38,32.7406,-117.3717,1.0161,132.87,3.3635,10,,3.2,ml,,,0.27,29.9,56.5,"[41.099998474121094, 44.099998474121094, 38.20000076293945]",2315,43:48.5,earthquake_local,109C.TA_20081030144347_EV
TA,109C,BH,32.8889,-117.1051,150,500,manual,0.5,17.61,1705,manual,0.5,11380755,12:19.1,0.29,32.6899,-116.0255,0.8474,30.714,3.2031,12.86,,2.9,ml,,,0.93,103.51,282.6,"[29.600000381469727, 34.5, 28.799999237060547]",3100,12:31.7,earthquake_local,109C.TA_20081101051230_EV
TA,109C,BH,32.8889,-117.1051,150,700,manual,0.5,12.95,1557,manual,0.5,11456742,41:35.8,0.32,33.4728,-116.8878,0.9834,53.557,2.8938,4.61,,3.8,ml,,,0.61,67.86,197.4,"[48.29999923706055, 54.5, 47.20000076293945]",2279,41:41.7,earthquake_local,109C.TA_20081117174140_EV
TA,109C,BH,32.8889,-117.1051,150,900,manual,0.5,18.74,2158,manual,0.5,11667156,41:58.3,0.85,32.7012,-118.1842,1.4085,185.082,5.53864,16,,4.1,mb,,,0.93,103.2,78.1,"[51.79999923706055, 57.29999923706055, 50.20000076293945]",4828,42:08.0,earthquake_local,109C.TA_20090129084207_EV
TA,109C,BH,32.8889,-117.1051,150,800,manual,0.5,18.62,2040,manual,0.5,13989270,20:00.9,1.16,32.702,-118.2045,1.4648,186.986,9.08909,10,,3.1,ml,,,0.94,105.04,78.3,"[26.399999618530273, 20.899999618530273, 21.700000762939453]",3199,20:11.5,earthquake_local,109C.TA_20090129192010_EV
TA,109C,BH,32.8889,-117.1051,150,600,manual,0.5,12.79,1477,manual,0.5,12053738,24:45.6,0.96,33.2447,-116.4355,0.9045,24.891,2.53998,9.1,,3.3,ml,,,0.67,73.94,237.9,"[61.5, 62.599998474121094, 51.099998474121094]",2554,24:52.4,earthquake_local,109C.TA_20090321112451_EV
TA,109C,BH,32.8889,-117.1051,150,800,manual,0.5,12.83,1677,manual,0.5,12601067,55:30.6,0.99,33.2453,-116.4241,0.7273,29.205,3.12549,8.22,,4,mw,,,0.67,74.88,238.3,"[55.099998474121094, 56.900001525878906, 49.29999923706055]",2340,55:35.5,earthquake_local,109C.TA_20090416175534_EV
TA,109C,BH,32.8889,-117.1051,150,55,autopicker,0.9,9.33,607,autopicker,0.47,13374603,34:42.9,0.86,32.7154,-117.5934,1.2471,145.841,4.88968,7.6,,3.8,mw,,,0.45,49.62,67,"[100.0999984741211, 87.0, 93.80000305175781]",1362,34:51.7,earthquake_local,109C.TA_20090711143450_EV
TA,109C,BH,32.8889,-117.1051,150,700,manual,0.5,18.29,1942,manual,0.5,16012823,24:22.5,1,33.2639,-116.0198,1.3712,41.1,2.94429,8.76,,3.6,ml,,,0.98,109.54,248,"[45.29999923706055, 49.29999923706055, 44.70000076293945]",5900,24:33.8,earthquake_local,109C.TA_20091111032432_EV
TA,109C,BH,32.8889,-117.1051,150,800,manual,0.5,15.11,1985,manual,0.5,14268468,19:49.6,0.49,32.0633,-117.4662,1.7005,132.264,6.19343,10,,4.4,mb,,,0.88,97.64,20.2,"[77.80000305175781, 75.9000015258789, 70.4000015258789]",5668,19:56.7,earthquake_local,109C.TA_20100201141955_EV
TA,109C,BH,32.8889,-117.1051,150,900,manual,0.5,14.24,1962,manual,0.5,14311288,35:47.8,0.83,32.2402,-116.5539,1.54,97.805,3.07149,9.23,,3.6,mb,,,0.8,88.63,324.4,"[75.80000305175781, 73.0, 66.4000015258789]",5584,35:53.1,earthquake_local,109C.TA_20100214213552_EV
TA,109C,BH,32.8889,-117.1051,150,400,manual,0.5,12.33,1279,autopicker,0.51,14384311,18:21.0,1.05,33.0199,-116.3321,1.4279,33.264,2.48965,3.25,,4,ml,,,0.66,73.72,258.8,"[53.29999923706055, 50.20000076293945, 51.70000076293945]",5152,18:29.3,earthquake_local,109C.TA_20100309041828_EV
TA,109C,BH,32.8889,-117.1051,150,400,manual,0.5,9.5,1093,autopicker,0.67,600139123,39:38.4,1.13,33.2653,-116.71,1.5894,54.566,3.13168,2.06,,3.5,ml,,,0.5,55.71,221.6,"[66.80000305175781, 64.0999984741211, 61.0]",3969,39:43.9,earthquake_local,109C.TA_20100311013942_EV
TA,109C,BH,32.8889,-117.1051,150,500,manual,0.5,17.07,1590,manual,0.5,14723837,52:41.0,1.42,32.127,-117.6519,1.3462,201.296,6.46691,1.34,,3.3,mb,,,0.89,98.89,31.2,"[65.80000305175781, 65.19999694824219, 57.099998474121094]",3172,52:53.1,earthquake_local,109C.TA_20100526035252_EV
TA,109C,BH,32.8889,-117.1051,150,600,manual,0.5,15.74,1671,manual,0.5,14723838,57:27.8,0.9,32.166,-117.6423,1.4289,196.294,6.61023,10,,3.6,mb,,,0.85,94.73,32,"[68.5, 65.80000305175781, 61.0]",4860,57:37.5,earthquake_local,109C.TA_20100526035736_EV
TA,109C,BH,32.8889,-117.1051,150,500,manual,0.5,17.4,1795,manual,0.5,600792766,59:45.9,0.82,32.7064,-115.9636,1.7294,30.797,2.58577,10.22,,4.1,mb,,,0.98,108.82,281,"[41.400001525878906, 42.900001525878906, 44.70000076293945]",4884,59:58.3,earthquake_local,109C.TA_20100615045957_EV
TA,109C,BH,32.8889,-117.1051,150,700,manual,0.5,12.82,1679,autopicker,0.59,14930870,53:34.3,0.29,33.3809,-116.5054,1.8528,30.178,2.34765,6.98,,5.5,mw,,,0.7,78.16,225.9,"[96.0, 96.4000015258789, 88.30000305175781]",5680,53:40.1,earthquake_local,109C.TA_20100707235339_EV
TA,109C,BH,32.8889,-117.1051,150,600,manual,0.5,10.65,1342,manual,0.5,15657702,52:05.7,0.92,33.0059,-116.4378,1.1235,47.107,3.78058,7.69,,2.6,ml,,,0.57,63.73,258.4,"[36.0, 43.599998474121094, 36.400001525878906]",4827,52:10.3,earthquake_local,109C.TA_20101118035209_EV
TA,109C,BH,32.8889,-117.1051,150,800,manual,0.5,12.66,1600,manual,0.5,600005664,33:10.3,0.92,32.9077,-116.4014,1.5687,64.365,3.89488,23.12,,3.1,ml,,,0.59,65.87,268.4,"[37.599998474121094, 40.29999923706055, 36.900001525878906]",3578,33:15.0,earthquake_local,109C.TA_20111017173313_EV
TA,109C,BH,32.8889,-117.1051,150,400,manual,0.5,12.66,1200,manual,0.5,600005664,33:10.3,0.92,32.9077,-116.4014,1.5687,64.365,3.89488,23.12,,3.1,ml,,,0.59,65.87,268.4,"[35.599998474121094, 42.599998474121094, 41.5]",4023,33:19.0,earthquake_local,109C.TA_20111017173317_EV
TA,109C,BH,32.8889,-117.1051,150,900,manual,0.5,14.81,1893,manual,0.5,601819958,19:37.9,1.02,32.8662,-116.216,0.9193,80.139,5.39563,18.77,,3.6,md,,,0.75,83.24,272,"[13.0, 15.0, 11.399999618530273]",3600,19:43.7,earthquake_local,109C.TA_20111018161942_EV
TA,109C,BH,32.8889,-117.1051,150,600,manual,0.5,14.81,1593,manual,0.5,601819958,19:37.9,1.02,32.8662,-116.216,0.9193,80.139,5.39563,18.77,,3.6,md,,,0.75,83.24,272,"[12.199999809265137, 14.899999618530273, 12.100000381469727]",4872,19:46.7,earthquake_local,109C.TA_20111018161945_EV
TA,109C,BH,32.8889,-117.1051,150,500,manual,0.5,13.01,1362,manual,0.5,600056947,13:47.9,0.83,32.902,-116.2844,0.8299,49.515,2.89267,14.29,,2.6,ml,,,0.69,76.8,269.1,"[30.299999237060547, 30.5, 26.100000381469727]",4577,13:56.0,earthquake_local,109C.TA_20111030211354_EV
TA,109C,BH,32.8889,-117.1051,150,900,manual,0.5,29.42,3372,autopicker,0.63,602928189,07:49.4,0.98,32.1751,-115.2284,1.0945,86.573,3.8527,23.45,,3,ml,,,1.74,193.25,294.7,"[39.099998474121094, 41.599998474121094, 32.599998474121094]",3956,08:09.8,earthquake_local,109C.TA_20130205060808_EV
TA,109C,BH,32.8889,-117.1051,150,400,manual,0.5,21.65,1880,manual,0.5,602787086,18:47.8,1.11,33.9792,-117.226,1.793,52.149,2.62681,3.27,,3.6,ml,,,1.09,121.45,174.7,"[45.29999923706055, 40.79999923706055, 38.599998474121094]",5900,19:05.4,earthquake_local,109C.TA_20130226201904_EV
TA,109C,BH,32.8889,-117.1051,150,800,manual,0.5,20.44,2305,autopicker,0.56,602730351,17:40.1,0.92,34.0043,-117.2432,0.9943,64.382,2.77801,15.96,,3.4,ml,,,1.12,124.38,174,"[40.099998474121094, 37.599998474121094, 34.400001525878906]",5900,17:52.5,earthquake_local,109C.TA_20130304231751_EV
TA,109C,BH,32.8889,-117.1051,150,900,manual,0.5,14.99,1932,manual,0.5,602597568,56:05.9,0.69,33.4826,-116.4524,1.3719,31.706,3.20196,10.21,,4.7,mb,,"[[216.47999572753906, 71.12000274658203, -6.159999847412109], [308.4800109863281, 84.16999816894531, -161.02000427246094]]",0.81,89.67,222.9,"[56.0, 58.099998474121094, 55.400001525878906]",5900,56:11.8,earthquake_local,109C.TA_20130311165610_EV
TA,109C,BH,32.8889,-117.1051,150,400,manual,0.5,14.99,1432,manual,0.5,602597568,56:05.9,0.69,33.4826,-116.4524,1.3719,31.706,3.20196,10.21,,4.7,mb,,"[[216.47999572753906, 71.12000274658203, -6.159999847412109], [308.4800109863281, 84.16999816894531, -161.02000427246094]]",0.81,89.67,222.9,"[53.5, 58.599998474121094, 55.70000076293945]",5028,56:16.8,earthquake_local,109C.TA_20130311165615_EV
TA,109C,BH,32.8889,-117.1051,150,700,manual,0.5,33.55,3160,autopicker,0.68,602759925,30:50.9,1.16,31.285,-115.8857,1.5355,157.841,7.96542,2.13,,3.7,ml,,,1.91,211.85,327.4,"[29.600000381469727, 31.700000762939453, 26.799999237060547]",4528,31:17.4,earthquake_local,109C.TA_20130404163116_EV
TA,109C,BH,32.8889,-117.1051,150,400,manual,0.5,22.4,2048,manual,0.5,602954406,14:02.5,1.03,33.782,-116.0812,0.8221,39.731,2.64838,4.79,,3.5,ml,,,1.24,137.47,224.2,"[42.70000076293945, 43.400001525878906, 41.5]",5900,14:20.9,earthquake_local,109C.TA_20130407191419_EV
TA,109C,BH,32.8889,-117.1051,150,500,manual,0.5,18.33,1793,manual,0.5,604174985,16:54.2,0.86,32.6756,-115.9434,0.8529,71.636,3.70608,14.09,,2.4,ml,,,1,111.37,282.6,"[38.400001525878906, 43.400001525878906, 34.70000076293945]",5900,17:07.5,earthquake_local,109C.TA_20130415071706_EV
TA,109C,BH,32.8889,-117.1051,150,400,manual,0.5,29.05,2709,autopicker,0.53,602790932,57:56.6,0.94,32.1808,-115.2797,1.4952,58.894,3.51872,12.07,,4,mb,,,1.7,188.6,295.1,"[64.69999694824219, 60.70000076293945, 53.70000076293945]",5672,58:21.7,earthquake_local,109C.TA_20130417025820_EV
TA,109C,BH,32.8889,-117.1051,150,800,manual,0.5,37.73,3560,autopicker,0.68,603091196,06:08.7,0.96,34.4493,-119.2948,1.1304,56.854,3.07572,17.67,,3.7,ml,,,2.4,266.81,129.8,"[29.399999618530273, 33.0, 25.100000381469727]",5900,06:38.4,earthquake_local,109C.TA_20130507090637_EV
TA,109C,BH,32.8889,-117.1051,150,500,manual,0.5,23.02,2236,manual,0.5,603007125,44:43.0,0.91,33.2055,-115.5611,1.2381,72.138,3.22124,14.31,,2.9,ml,,,1.33,148.43,256.7,"[25.100000381469727, 25.100000381469727, 19.899999618530273]",5900,45:01.0,earthquake_local,109C.TA_20130519154459_EV
TA,109C,BH,32.8889,-117.1051,150,700,manual,0.5,26.97,2627,manual,0.5,603236744,32:31.4,0.94,31.5627,-116.1461,1.14,114.442,3.46098,17.86,,3.4,ml,,,1.55,172.62,328.7,"[41.20000076293945, 45.5, 37.29999923706055]",5900,32:51.4,earthquake_local,109C.TA_20130521043250_EV
TA,109C,BH,32.8889,-117.1051,150,500,manual,0.5,29.52,2615,manual,0.5,603178434,54:04.1,1.07,32.2538,-115.335,0.8775,94.299,4.15586,9.14,,2.7,ml,,,1.62,180.52,293.4,"[7.599999904632568, 10.399999618530273, 10.300000190734863]",5900,54:28.6,earthquake_local,109C.TA_20130523185427_EV
TA,109C,BH,32.8889,-117.1051,150,700,manual,0.5,22.53,2444,manual,0.5,603230840,04:09.6,0.99,33.2121,-115.626,1.3474,30.275,2.76457,13.7,,4.4,mb,,,1.28,142.72,255.9,"[34.29999923706055, 33.29999923706055, 33.79999923706055]",5900,04:25.1,earthquake_local,109C.TA_20130603190424_EV
TA,109C,BH,32.8889,-117.1051,150,400,manual,0.5,22.93,2113,manual,0.5,603053434,46:40.6,0.96,33.191,-115.5706,1.3778,101.078,3.48239,12.13,,3.7,ml,,,1.32,147.2,257.3,"[19.600000381469727, 24.299999237060547, 13.199999809265137]",5900,46:59.6,earthquake_local,109C.TA_20130604194658_EV
TA,109C,BH,32.8889,-117.1051,150,700,manual,0.5,23.92,2387,autopicker,0.77,608109445,53:34.6,1.03,33.7741,-115.9764,0.2832,94.776,4.83641,11.93,,2.3,ml,,,1.29,143.81,227.3,"[14.300000190734863, 12.600000381469727, 12.5]",5900,53:51.5,earthquake_local,109C.TA_20130605075350_EV
TA,109C,BH,32.8889,-117.1051,150,700,manual,0.5,28.06,2972,manual,0.5,603095360,48:46.1,0.94,32.2436,-115.3271,1.2987,65.974,4.11279,15.66,,3.2,ml,,,1.63,181.65,293.7,"[42.599998474121094, 39.0, 33.20000076293945]",5900,49:07.1,earthquake_local,109C.TA_20130607004906_EV
TA,109C,BH,32.8889,-117.1051,150,600,manual,0.5,27.62,2733,manual,0.5,603230861,50:13.1,0.86,32.2467,-115.3244,1.0966,66.107,3.84578,15.37,,3.1,ml,,,1.63,181.75,293.5,"[30.200000762939453, 30.0, 23.899999618530273]",5900,50:34.7,earthquake_local,109C.TA_20130610045033_EV
