network_code,receiver_code,receiver_type,receiver_latitude,receiver_longitude,receiver_elevation_m,p_arrival_sample,p_status,p_weight,p_travel_sec,s_arrival_sample,s_status,s_weight,source_id,source_origin_time,source_origin_uncertainty_sec,source_latitude,source_longitude,source_error_sec,source_gap_deg,source_horizontal_uncertainty_km,source_depth_km,source_depth_uncertainty_km,source_magnitude,source_magnitude_type,source_magnitude_author,source_mechanism_strike_dip_rake,source_distance_deg,source_distance_km,back_azimuth_deg,snr_db,coda_end_sample,trace_start_time,trace_category,trace_name
N4,154A,HH,32.6131,-83.1066,111,800,manual,0.7,6.56,1265,manual,0.7,se60038603,43:47.4,,32.923,-83.21733,,,,1.57,,2.49,md,,,0.3228,35.9,343.2,"[19.799999237060547, 20.600000381469727, 19.0]",3004,43:46.0,earthquake_local,154A.N4_20170611044344_EV
N4,154A,HH,32.6131,-83.1066,111,400,manual,0.69,11.2,1198,manual,0.78,se60206522,55:05.5,2.72,32.9942,-83.6589,1.34,41,6.269,12.34,3.83,2.43,md,,,0.6041,67.18,309.3,"[25.100000381469727, 26.899999618530273, 21.600000381469727]",3199,55:12.7,earthquake_local,154A.N4_20180623135511_EV
TA,154A,BH,32.6131,-83.1066,111,800,manual,0.6,12.67,1727,autopicker,0.72,se610179,14:03.0,,33.22167,-82.721,,,,15.88,,2.3,ml,,,0.6881,76.53,180,"[11.800000190734863, 15.699999809265137, 10.600000381469727]",3199,14:07.6,earthquake_local,154A.TA_20130427201406_EV
TA,155A,BH,32.6219,-82.4665,93,900,manual,0.5,23.32,2565,autopicker,0.57,602946639,21:11.9,1.05,33.8719,-82.4613,0.8929,36.624,2.51977,4.42,,2.5,md,,,1.25,138.64,180.2,"[17.399999618530273, 17.600000381469727, 24.600000381469727]",5900,21:26.2,earthquake_local,155A.TA_20130407192125_EV
TA,157A,BH,32.678,-80.9972,21,500,manual,0.5,26.63,2447,manual,0.5,604049255,23:38.1,0.94,33.7906,-82.1237,1.9186,14.423,2.70285,8.24,,4.5,mb,,,1.46,162.02,139.3,"[51.599998474121094, 49.599998474121094, 47.29999923706055]",5900,23:59.8,earthquake_local,157A.TA_20140215032358_EV
TA,157A,BH,32.678,-80.9972,21,900,manual,0.5,14.54,1916,manual,0.5,604179950,38:03.1,0.83,33.0033,-80.1578,0.7749,83.194,3.73931,12.78,,3,mb_lg,,,0.78,86.47,245.6,"[29.5, 27.399999618530273, 29.100000381469727]",5900,38:08.6,earthquake_local,157A.TA_20140319223807_EV
TA,157A,BH,32.678,-80.9972,21,700,manual,0.5,14.54,1716,manual,0.5,604179950,38:03.1,0.83,33.0033,-80.1578,0.7749,83.194,3.73931,12.78,,3,mb_lg,,,0.78,86.47,245.6,"[28.600000381469727, 27.899999618530273, 29.700000762939453]",4964,38:10.6,earthquake_local,157A.TA_20140319223809_EV
TA,158A,BH,32.7364,-80.1935,12,400,manual,0.58,4.09,736,autopicker,0.44,se610217,57:43.7,,32.93717,-80.13733,,,,0.85,,2.3,md,,,0.2057,22.88,13,"[20.5, 23.299999237060547, 7.599999904632568]",2144,57:43.8,earthquake_local,158A.TA_20130907185742_EV
TA,158A,BH,32.7364,-80.1935,12,500,manual,0.5,33.49,3330,manual,0.5,604050146,23:34.7,1.12,33.7986,-82.0998,1.3244,49.61,2.79936,1.21,,4,ml,,,1.92,213.12,123,"[24.100000381469727, 27.899999618530273, 23.5]",4779,24:03.2,earthquake_local,158A.TA_20140216202402_EV
TA,158A,BH,32.7364,-80.1935,12,900,manual,0.5,5.39,1324,manual,0.5,604179950,38:03.1,0.83,33.0033,-80.1578,0.7749,83.194,3.73931,12.78,,3,mb_lg,,,0.27,29.79,186.4,"[36.29999923706055, 45.20000076293945, 34.599998474121094]",5900,37:59.5,earthquake_local,158A.TA_20140319223758_EV
TA,158A,BH,32.7364,-80.1935,12,600,manual,0.5,5.39,1024,manual,0.5,604179950,38:03.1,0.83,33.0033,-80.1578,0.7749,83.194,3.73931,12.78,,3,mb_lg,,,0.27,29.79,186.4,"[34.400001525878906, 44.5, 33.29999923706055]",2596,38:02.5,earthquake_local,158A.TA_20140319223801_EV
ZQ,191,BH,39.5382,114.3625,1238,700.967,autopicker,0.91,8.83,1451.97,autopicker,0.67,9492,17:13.5,nan,39.94,113.92,0.9,nan,,14,,2.4,ml,,,0.5275,58.56,319.769,"[37.79999923706055, 36.599998474121094, 33.5]",3199,17:15.3,earthquake_local,191.ZQ_20020206201714_EV
ZQ,193,BH,39.6391,114.1933,1439,741,autopicker,0.92,5.85,1272,autopicker,0.72,9492,17:13.5,nan,39.94,113.92,0.9,nan,,14,,2.4,ml,,,0.3675,40.79,325.069,"[53.20000076293945, 56.29999923706055, 50.79999923706055]",2389,17:11.9,earthquake_local,193.ZQ_20020206201710_EV
ZQ,193,BH,39.6391,114.1933,1439,392.6,autopicker,0.9,12.11,1416.6,autopicker,0.79,2222,07:48.8,nan,39.22,113.22,4,nan,,15,,2.3,ml,,,0.8635,95.85,241.269,"[41.79999923706055, 43.70000076293945, 39.599998474121094]",2924,07:57.0,earthquake_local,193.ZQ_20020313190755_EV
ZQ,194,BH,39.6745,114.0466,1435,371.12,autopicker,0.91,10.6,1244.12,autopicker,0.76,2222,07:48.8,nan,39.22,113.22,4,nan,,15,,2.3,ml,,,0.7858,87.23,234.919,"[53.599998474121094, 53.599998474121094, 45.400001525878906]",3199,07:55.7,earthquake_local,194.ZQ_20020313190754_EV
ZQ,195,BH,39.7462,113.9669,1821,388.74,autopicker,0.85,10.72,1278.74,autopicker,0.56,2222,07:48.8,nan,39.22,113.22,4,nan,,15,,2.3,ml,,,0.7824,86.85,227.962,"[33.099998474121094, 35.79999923706055, 29.100000381469727]",2304,07:55.6,earthquake_local,195.ZQ_20020313190754_EV
ZQ,196,BH,39.7597,113.8468,1828,396.82,autopicker,0.89,9.87,1236.82,autopicker,0.56,2222,07:48.8,nan,39.22,113.22,4,nan,,15,,2.3,ml,,,0.7262,80.61,222.183,"[44.79999923706055, 51.79999923706055, 49.400001525878906]",2779,07:54.7,earthquake_local,196.ZQ_20020313190753_EV
ZQ,197,BH,39.8102,113.7714,1273,396.68,autopicker,0.73,9.91,1263.68,autopicker,0.8,2222,07:48.8,nan,39.22,113.22,4,nan,,15,,2.3,ml,,,0.7287,80.88,216.066,"[30.299999237060547, 25.600000381469727, 28.600000381469727]",3199,07:54.7,earthquake_local,197.ZQ_20020313190753_EV
ZQ,198,BH,39.8459,113.6421,1273,387.64,autopicker,0.91,9.45,1224.64,autopicker,0.81,2222,07:48.8,nan,39.22,113.22,4,nan,,15,,2.3,ml,,,0.7063,78.4,207.708,"[37.70000076293945, 43.400001525878906, 37.400001525878906]",3199,07:54.4,earthquake_local,198.ZQ_20020313190753_EV
ZQ,199,BH,39.9178,113.6035,1273,662.9,autopicker,0.92,2.9,1059.9,autopicker,0.77,9492,17:13.5,nan,39.94,113.92,0.9,nan,,14,,2.4,ml,,,0.2447,27.17,84.693,"[37.0, 37.099998474121094, 31.899999618530273]",2913,17:09.8,earthquake_local,199.ZQ_20020206201708_EV
ZQ,199,BH,39.9178,113.6035,1273,424.38,autopicker,0.85,10.68,1403.38,autopicker,0.69,2222,07:48.8,nan,39.22,113.22,4,nan,,15,,2.3,ml,,,0.7585,84.19,203.165,"[25.5, 20.0, 18.200000762939453]",3199,07:55.2,earthquake_local,199.ZQ_20020313190754_EV
ZQ,200,BH,39.9529,113.4945,1058,433.58,autopicker,0.85,10.85,1408.58,autopicker,0.62,2222,07:48.8,nan,39.22,113.22,4,nan,,15,,2.3,ml,,,0.7632,84.72,196.249,"[19.100000381469727, 16.899999618530273, 15.199999809265137]",3199,07:55.3,earthquake_local,200.ZQ_20020313190754_EV
TA,240A,BH,32.0387,-93.7626,119,800,manual,0.5,12.27,1697,manual,0.5,600998194,15:39.8,0.54,31.9291,-94.4171,1.8527,58.796,4.38614,21.21,,3.9,mw,,,0.57,63.04,78.7,"[41.20000076293945, 44.0, 35.70000076293945]",2296,15:44.1,earthquake_local,240A.TA_20120510151543_EV
TA,240A,BH,32.0387,-93.7626,119,400,manual,0.5,11.36,1728,autopicker,0.75,601118735,58:27.9,1.04,31.8894,-94.4147,0.7497,75.621,4.99763,9.04,,2.5,mn,,,0.57,63.83,74.8,"[29.600000381469727, 34.900001525878906, 24.200000762939453]",3199,58:35.3,earthquake_local,240A.TA_20120526055834_EV
TA,247A,BH,32.053,-88.6102,109,600,manual,0.58,9.61,1465,autopicker,0.81,nm609492,49:03.9,,32.54267,-88.63983,,,,9.28,,1.6,md,,,0.4889,54.37,357,"[15.100000381469727, 19.299999237060547, 11.399999618530273]",3199,49:07.5,earthquake_local,247A.TA_20120730034906_EV
X2,258,BH,39.806,113.219,964,631.44,autopicker,0.8,12.39,1539.44,autopicker,0.81,1775,37:13.8,nan,39.17,112.75,1.4,nan,,14,,2.5,ml,,,0.7327,81.33,209.893,"[32.79999923706055, 32.79999923706055, 23.5]",2687,37:19.9,earthquake_local,258.X2_20060421183718_EV
X2,258,BH,39.806,113.219,964,966.833,autopicker,0.79,11.37,1872.83,autopicker,0.76,305,55:24.1,nan,39.3,113.05,3,nan,,15,,2.5,ml,,,0.5228,58.03,194.551,"[25.700000762939453, 23.899999618530273, 19.700000762939453]",3181,55:25.8,earthquake_local,258.X2_20060422205524_EV
X2,262,BH,39.7924,112.744,1639,714.96,autopicker,0.92,11.42,1499.96,autopicker,0.83,1775,37:13.8,nan,39.17,112.75,1.4,nan,,14,,2.5,ml,,,0.6226,69.1,179.57,"[48.20000076293945, 47.20000076293945, 43.5]",2302,37:18.1,earthquake_local,262.X2_20060421183717_EV
X2,262,BH,39.7924,112.744,1639,831.6,autopicker,0.92,10.44,1616.6,autopicker,0.8,305,55:24.1,nan,39.3,113.05,3,nan,,15,,2.5,ml,,,0.5466,60.67,154.209,"[43.5, 42.70000076293945, 40.79999923706055]",2478,55:26.2,earthquake_local,262.X2_20060422205525_EV
X2,263,BH,39.785,112.626,1419,742.96,autopicker,0.92,11.7,1530.96,autopicker,0.76,1775,37:13.8,nan,39.17,112.75,1.4,nan,,14,,2.5,ml,,,0.6226,69.11,171.079,"[49.20000076293945, 45.20000076293945, 49.099998474121094]",2775,37:18.1,earthquake_local,263.X2_20060421183717_EV
X2,263,BH,39.785,112.626,1419,790.7,autopicker,0.93,10.73,1576.7,autopicker,0.68,305,55:24.1,nan,39.3,113.05,3,nan,,15,,2.5,ml,,,0.5858,65.02,145.772,"[42.20000076293945, 41.5, 44.29999923706055]",2854,55:26.9,earthquake_local,263.X2_20060422205525_EV
X2,264,BH,39.8065,112.485,1449,783.4,autopicker,0.92,12.86,1655.4,autopicker,0.76,1775,37:13.8,nan,39.17,112.75,1.4,nan,,14,,2.5,ml,,,0.6689,74.25,162.036,"[43.20000076293945, 39.0, 37.29999923706055]",3199,37:18.8,earthquake_local,264.X2_20060421183717_EV
X2,264,BH,39.8065,112.485,1449,693.32,autopicker,0.91,11.9,1565.32,autopicker,0.79,305,55:24.1,nan,39.3,113.05,3,nan,,15,,2.5,ml,,,0.6694,74.3,139.008,"[42.099998474121094, 41.29999923706055, 39.29999923706055]",3199,55:29.1,earthquake_local,264.X2_20060422205528_EV
X2,265,BH,39.7664,112.381,1467,810.34,autopicker,0.9,13.01,1760.34,autopicker,0.82,1775,37:13.8,nan,39.17,112.75,1.4,nan,,14,,2.5,ml,,,0.6616,73.43,154.262,"[42.599998474121094, 44.79999923706055, 43.400001525878906]",3199,37:18.7,earthquake_local,265.X2_20060421183717_EV
X2,265,BH,39.7664,112.381,1467,662.64,autopicker,0.92,12.05,1538.64,autopicker,0.7,305,55:24.1,nan,39.3,113.05,3,nan,,15,,2.5,ml,,,0.6972,77.39,131.784,"[46.900001525878906, 44.599998474121094, 46.70000076293945]",2813,55:29.5,earthquake_local,265.X2_20060422205528_EV
X2,266,BH,39.7594,112.238,1505,860.74,autopicker,0.92,14.32,1839.74,autopicker,0.76,1775,37:13.8,nan,39.17,112.75,1.4,nan,,14,,2.5,ml,,,0.7107,78.89,145.883,"[42.599998474121094, 41.5, 42.79999923706055]",3199,37:19.5,earthquake_local,266.X2_20060421183718_EV
X2,266,BH,39.7594,112.238,1505,658.54,autopicker,0.91,13.36,1620.54,autopicker,0.61,305,55:24.1,nan,39.3,113.05,3,nan,,15,,2.5,ml,,,0.7789,86.46,125.893,"[45.0, 47.900001525878906, 44.70000076293945]",3199,55:30.9,earthquake_local,266.X2_20060422205529_EV
X2,268,BH,39.7357,112.007,1668,896.52,autopicker,0.92,16.28,1990.52,autopicker,0.7,1775,37:13.8,nan,39.17,112.75,1.4,nan,,14,,2.5,ml,,,0.8075,89.63,134.246,"[45.400001525878906, 50.29999923706055, 51.400001525878906]",3199,37:21.1,earthquake_local,268.X2_20060421183720_EV
X2,268,BH,39.7357,112.007,1668,622.3,autopicker,0.92,15.32,1714.3,autopicker,0.72,305,55:24.1,nan,39.3,113.05,3,nan,,15,,2.5,ml,,,0.918,101.9,118.008,"[41.5, 38.20000076293945, 38.29999923706055]",2950,55:33.2,earthquake_local,268.X2_20060422205532_EV
X2,270,BH,39.7628,111.752,1320,928.62,autopicker,0.91,19.4,2263.62,autopicker,0.45,1775,37:13.8,nan,39.17,112.75,1.4,nan,,14,,2.5,ml,,,0.9748,108.2,127.146,"[38.599998474121094, 38.5, 40.900001525878906]",3199,37:23.9,earthquake_local,270.X2_20060421183722_EV
TA,735A,BH,28.8553,-97.8081,90,600,manual,0.5,6.31,1306,manual,0.5,17386617,24:42.5,0.86,28.8481,-98.1485,2.1645,25.597,4.11414,14.21,,4.8,mw,,"[[88.44000244140625, 28.43000030517578, -84.87999725341797], [262.6300048828125, 61.689998626708984, -92.76000213623047]]",0.3,33.23,88.5,"[84.9000015258789, 83.80000305175781, 68.9000015258789]",4388,24:42.8,earthquake_local,735A.TA_20111020122441_EV
TA,735A,BH,28.8553,-97.8081,90,400,manual,0.5,7.49,1164,autopicker,0.87,17531242,34:53.5,1.22,28.8785,-98.2256,1.2835,55.825,4.38716,7.15,,3.5,mn,,,0.37,40.81,93.5,"[60.70000076293945, 69.30000305175781, 50.599998474121094]",2188,34:57.0,earthquake_local,735A.TA_20111112103456_EV
TA,A04A,BH,48.7197,-122.707,23,800,manual,0.95,7.38,1398,manual,0.93,uw10619648,53:10.4,nan,48.4953333,-123.1635,0.07,189,1,23.01,1.23,0.7,md,UW,,0.3771,41.9,233.2,"[0.699999988079071, 5.800000190734863, 5.400000095367432]",2380,53:09.8,earthquake_local,A04A.TA_20050104185308_EV
TA,A04A,BH,48.7197,-122.707,23,500,manual,0.95,15.41,1773,autopicker,0.92,uw10639168,11:56.4,nan,49.5648333,-122.3245,0.2,242,0.18,9.93,0.23,0,md,UW,,0.8824,98.04,16.6,"[19.0, 22.5, 10.600000381469727]",3199,12:06.8,earthquake_local,A04A.TA_20050221131205_EV
TA,A04A,BH,48.7197,-122.707,23,600,manual,0.95,14.51,1687,manual,0.93,uw10649373,28:21.7,nan,47.9817,-122.858,0.16,63,0.8,54.13,0.82,2,md,,"[[217.0, 21.0, 10000000000.0], [320.0, 85.0, 10000000000.0]]",0.7454,82.83,187.7,"[32.29999923706055, 27.5, 28.600000381469727]",2519,28:30.2,earthquake_local,A04A.TA_20050309172829_EV
TA,A04A,BH,48.7197,-122.707,23,700,manual,0.95,8.74,1403,manual,0.93,uw10654233,54:59.0,nan,49.0553333,-122.1511667,0.3,265,1.85,8.19,1.22,1.9,md,UW,,0.4974,55.27,47.6,"[19.299999237060547, 12.0, 5.599999904632568]",3199,55:00.7,earthquake_local,A04A.TA_20050315115459_EV
TA,A04A,BH,48.7197,-122.707,23,900,manual,0.95,2.76,1178,manual,0.93,uw10657263,16:39.6,nan,48.7698333,-122.5846667,0.28,140,0.08,14.92,0.1,1.4,md,UW,,0.09526,10.58,58.2,"[22.0, 20.700000762939453, 19.399999618530273]",1819,16:33.4,earthquake_local,A04A.TA_20050318081632_EV
TA,A04A,BH,48.7197,-122.707,23,800,manual,0.95,5.33,1235,manual,0.93,uw10661773,31:05.8,nan,48.652,-123.0856667,0.28,117,1.09,16.76,0.98,1.3,md,UW,,0.2599,28.88,254.7,"[16.5, 16.200000762939453, 14.399999618530273]",1843,31:03.2,earthquake_local,A04A.TA_20050410143102_EV
TA,A04A,BH,48.7197,-122.707,23,900,manual,0.95,7.32,1528,autopicker,0.54,uw10668883,39:40.5,nan,48.5033333,-122.1903333,0.15,69,0.64,1.82,0.96,1.9,md,UW,,0.4055,45.06,122.5,"[13.199999809265137, 17.899999618530273, 14.199999809265137]",2647,39:38.8,earthquake_local,A04A.TA_20050419203937_EV
TA,A04A,BH,48.7197,-122.707,23,500,manual,0.95,10.68,1325,manual,0.93,uw10671268,55:41.1,nan,48.6016667,-123.4373333,0.14,293,2.19,44.85,1.92,0.9,md,UW,,0.4984,55.38,256,"[22.399999618530273, 18.899999618530273, 18.700000762939453]",1976,55:46.8,earthquake_local,A04A.TA_20050422125545_EV
TA,A04A,BH,48.7197,-122.707,23,600,manual,0.95,10.49,1372,manual,0.93,uw10657063,08:37.5,nan,48.5923333,-123.5448333,0.18,243,1.92,20.95,3.21,0.9,md,UW,,0.57,63.33,256.7,"[9.0, 13.699999809265137, 8.199999809265137]",3199,08:42.0,earthquake_local,A04A.TA_20050506060840_EV
TA,A04A,BH,48.7197,-122.707,23,400,manual,0.95,4.8,810,manual,0.93,uw10659408,50:28.1,nan,48.6733333,-122.3703333,0.22,115,0.08,17.06,0.14,0.7,md,UW,,0.2278,25.31,101.9,"[20.100000381469727, 17.899999618530273, 6.900000095367432]",2440,50:28.9,earthquake_local,A04A.TA_20050509065027_EV
TA,A04A,BH,48.7197,-122.707,23,400,manual,0.95,4.7,808,manual,0.93,uw10659483,18:44.5,nan,48.6733333,-122.3645,0.21,104,0.74,14.07,1.98,1.5,md,UW,,0.2316,25.74,101.7,"[28.200000762939453, 33.099998474121094, 26.700000762939453]",1549,18:45.2,earthquake_local,A04A.TA_20050509081844_EV
TA,A04A,BH,48.7197,-122.707,23,800,manual,0.95,4.83,1208,manual,0.93,uw10660403,41:33.9,nan,48.67,-122.3715,0.31,67,1.36,17.59,2.39,1.3,md,UW,,0.2278,25.31,102.8,"[17.799999237060547, 19.200000762939453, 12.800000190734863]",2011,41:30.7,earthquake_local,A04A.TA_20050510094129_EV
TA,A04A,BH,48.7197,-122.707,23,500,manual,0.95,4.67,900,manual,0.93,uw10664218,06:23.8,nan,48.656,-122.3676667,0.31,131,1.98,14.96,4.79,0.7,md,UW,,0.2337,25.97,106,"[15.899999618530273, 10.600000381469727, 5.800000190734863]",2325,06:23.5,earthquake_local,A04A.TA_20050515010622_EV
TA,A04A,BH,48.7197,-122.707,23,900,manual,0.95,4.67,1255,manual,0.93,uw10666803,26:25.6,nan,48.899,-122.9038333,0.11,201,0.7,13.73,0.83,1,md,UW,,0.2217,24.63,324.1,"[16.600000381469727, 21.0, 18.5]",2029,26:21.3,earthquake_local,A04A.TA_20050519012620_EV
TA,A04A,BH,48.7197,-122.707,23,600,manual,0.95,5.99,1163,manual,0.93,uw10652708,25:38.9,nan,48.535,-122.2866667,0.28,89,1.15,12.57,2.05,1.5,md,UW,,0.3346,37.17,123.8,"[13.300000190734863, 9.600000381469727, 9.399999618530273]",2149,25:38.8,earthquake_local,A04A.TA_20050601042537_EV
TA,A04A,BH,48.7197,-122.707,23,400,manual,0.95,8.79,1085,manual,0.93,uw10671333,16:30.7,nan,48.6368333,-123.1721667,0,341,0.11,46.71,0.03,0.7,md,UW,,0.3193,35.47,254.7,"[8.300000190734863, 11.0, 5.800000190734863]",3199,16:35.5,earthquake_local,A04A.TA_20050616121634_EV
TA,A04A,BH,48.7197,-122.707,23,400,manual,0.95,3.95,723,manual,0.93,uw10680493,37:28.9,nan,48.9038333,-122.691,0.04,260,0.58,13.27,0.63,0.4,md,UW,,0.1846,20.51,3.3,"[8.600000381469727, 7.199999809265137, 18.299999237060547]",2092,37:28.8,earthquake_local,A04A.TA_20050628013727_EV
TA,A04A,BH,48.7197,-122.707,23,400,manual,0.95,4.05,775,manual,0.93,uw10682208,25:25.7,nan,48.7247,-122.4118,0.19,nan,2.2,18.08,0.06,2,ml,,,0.1977,21.97,90.6,"[47.79999923706055, 53.5, 46.599998474121094]",1426,25:25.7,earthquake_local,A04A.TA_20050818022524_EV
TA,A04A,BH,48.7197,-122.707,23,600,manual,0.95,4.21,975,manual,0.93,uw10682258,54:18.0,nan,48.7128333,-122.4006667,0.15,115,0.06,15.4,0.08,0.9,md,UW,,0.203,22.55,92.1,"[24.0, 21.600000381469727, 21.700000762939453]",1602,54:16.2,earthquake_local,A04A.TA_20050818035415_EV
TA,A04A,BH,48.7197,-122.707,23,800,manual,0.95,3.9,1173,manual,0.93,uw10684443,15:33.0,nan,48.7131667,-122.4125,0.25,148,1.66,13.3,2.5,1.3,md,UW,,0.1952,21.68,92,"[20.0, 19.299999237060547, 17.799999237060547]",1800,15:28.9,earthquake_local,A04A.TA_20050824041527_EV
TA,A04A,BH,48.7197,-122.707,23,600,manual,0.95,4.54,983,manual,0.93,uw10685733,41:00.1,nan,48.5341667,-122.544,0.2,91,0.84,16.23,1.64,1.6,md,UW,,0.2149,23.88,149.9,"[27.0, 21.100000381469727, 26.700000762939453]",2221,40:58.6,earthquake_local,A04A.TA_20050826184057_EV
TA,A04A,BH,48.7197,-122.707,23,900,manual,0.95,13.88,1960,manual,0.93,uw10678683,09:59.7,nan,48.0776667,-123.266,0.23,100,0.7,44.33,0.3,1.5,md,UW,,0.7427,82.52,209.8,"[12.399999618530273, 8.899999618530273, 9.100000381469727]",3199,10:04.6,earthquake_local,A04A.TA_20050914131003_EV
TA,A04A,BH,48.7197,-122.707,23,500,manual,0.95,9.01,1220,manual,0.93,uw10681663,59:15.4,nan,48.78,-123.1943333,0.14,274,2.61,49.21,1.29,1.5,md,UW,,0.3281,36.46,280.4,"[20.0, 23.200000762939453, 8.800000190734863]",2285,59:19.4,earthquake_local,A04A.TA_20050921095918_EV
TA,A04A,BH,48.7197,-122.707,23,700,manual,0.95,7.58,1304,autopicker,0.6,uw10676563,46:09.1,nan,48.8196667,-122.0893333,0.19,108,0.04,11.73,0.11,1.8,md,UW,,0.4207,46.75,76.4,"[13.199999809265137, 13.300000190734863, 16.200000762939453]",3199,46:09.6,earthquake_local,A04A.TA_20051003144608_EV
TA,A04A,BH,48.7197,-122.707,23,900,manual,0.95,7.4,1501,autopicker,0.49,uw10676628,51:01.4,nan,48.8108333,-122.1163333,0.17,105,0.04,3.23,0,1.3,md,UW,,0.4013,44.59,77,"[9.899999618530273, 10.600000381469727, 3.200000047683716]",3199,50:59.8,earthquake_local,A04A.TA_20051003195058_EV
TA,A04A,BH,48.7197,-122.707,23,700,manual,0.95,10.72,1540,manual,0.93,uw10676668,12:36.4,nan,49.1441667,-122.1253333,0.01,295,0.02,-0.82,0.01,1.4,md,UW,,0.5724,63.6,42.2,"[12.899999618530273, 17.100000381469727, 10.0]",2949,12:40.1,earthquake_local,A04A.TA_20051003221239_EV
TA,A04A,BH,48.7197,-122.707,23,500,manual,0.5,10.62,1325,manual,0.5,8505844,37:03.0,0.14,48.3269,-123.2014,0.7072,34.271,2.1919,43.87,,4,mwr,,,0.51,56.93,39.5,"[67.5999984741211, 62.0, 56.099998474121094]",2017,37:08.6,earthquake_local,A04A.TA_20060704203707_EV
TA,A04A,BH,48.7197,-122.707,23,500,manual,0.5,16.43,1789,manual,0.5,10395575,23:49.4,0.22,47.828,-123.0686,0.5491,45.892,3.2671,44.46,,3.5,mb,,,0.92,102.72,15,"[33.099998474121094, 33.70000076293945, 31.5]",3466,24:00.8,earthquake_local,A04A.TA_20070126092359_EV
