network_code,receiver_code,receiver_type,receiver_latitude,receiver_longitude,receiver_elevation_m,p_arrival_sample,p_status,p_weight,p_travel_sec,s_arrival_sample,s_status,s_weight,source_id,source_origin_time,source_origin_uncertainty_sec,source_latitude,source_longitude,source_error_sec,source_gap_deg,source_horizontal_uncertainty_km,source_depth_km,source_depth_uncertainty_km,source_magnitude,source_magnitude_type,source_magnitude_author,source_mechanism_strike_dip_rake,source_distance_deg,source_distance_km,back_azimuth_deg,snr_db,coda_end_sample,trace_start_time,trace_category,trace_name
TA,A04A,BH,48.7197,-122.707,23,500,manual,0.5,9.34,1149,manual,0.5,11925573,21:28.8,0.27,49.0037,-122.1718,0.8828,45.226,3.1804,8.99,,2.6,ml,,,0.45,50.39,231.4,"[26.299999237060547, 31.299999237060547, 21.899999618530273]",3199,21:33.2,earthquake_local,A04A.TA_20070415012132_EV
TA,A04A,BH,48.7197,-122.707,23,600,manual,0.95,16.96,1870,manual,0.93,uw10713303,13:16.0,0.01,49.3392,-121.6483,0.24,nan,,1,1.83,2,ml,,,0.9379,104.21,48.8,"[21.600000381469727, 26.399999618530273, 22.0]",3199,13:27.0,earthquake_local,A04A.TA_20070613041326_EV
TA,A04A,BH,48.7197,-122.707,23,500,manual,0.95,3.2,810,manual,0.93,uw10717753,41:59.7,nan,48.5961667,-122.6648333,0.2,110,1.06,16.28,1.91,1.2,md,UW,,0.1268,14.08,167.3,"[20.200000762939453, 19.799999237060547, 18.899999618530273]",1563,41:57.9,earthquake_local,A04A.TA_20070622004156_EV
TA,A04A,BH,48.7197,-122.707,23,500,manual,0.5,14.36,1601,manual,0.5,12773944,02:29.8,0.37,48.0233,-122.4629,0.4308,26.328,3.3343,58.53,,2.6,md,,,0.72,79.52,346.9,"[27.5, 31.0, 24.899999618530273]",3199,02:39.2,earthquake_local,A04A.TA_20070720060238_EV
TA,A04A,BH,48.7197,-122.707,23,600,manual,0.95,11.03,1435,manual,0.93,uw10725208,20:54.2,nan,48.2778,-123.0705,0.25,43,0.6,47.9,0.63,2.1,md,,"[[30.0, 75.0, 10000000000.0], [176.0, 18.0, 10000000000.0]]",0.504,56,208.5,"[28.5, 34.099998474121094, 30.200000762939453]",2116,20:59.2,earthquake_local,A04A.TA_20070813042058_EV
TA,A04A,BH,48.7197,-122.707,23,600,manual,0.95,5.96,1030,manual,0.93,uw10726443,35:32.3,nan,48.6576667,-123.1485,0.24,85,0.79,18.91,1.35,1.5,md,UW,,0.2991,33.23,257.8,"[37.29999923706055, 23.600000381469727, 24.399999618530273]",1987,35:32.2,earthquake_local,A04A.TA_20070910173531_EV
TA,A04A,BH,48.7197,-122.707,23,800,manual,0.5,9.46,1517,manual,0.5,12963489,21:35.6,0.28,48.443,-122.8621,0.48,20.105,2.5584,56.08,,2.7,ml,,,0.29,32.83,20.3,"[44.70000076293945, 45.400001525878906, 39.79999923706055]",2187,21:37.0,earthquake_local,A04A.TA_20070913042136_EV
TA,A04A,BH,48.7197,-122.707,23,900,manual,0.5,6.39,1366,manual,0.5,13232556,45:28.4,0.35,48.8977,-122.3572,0.5005,73.469,4.2758,19.42,,2.5,ml,,,0.29,32.43,232.5,"[21.700000762939453, 19.299999237060547, 18.600000381469727]",5690,45:25.8,earthquake_local,A04A.TA_20071001034524_EV
TA,A04A,BH,48.7197,-122.707,23,600,manual,0.95,5.67,1070,manual,0.93,uw10722768,45:29.3,nan,48.8851667,-122.3391667,0.61,149,1.37,12.4,3.01,2.4,md,UW,,0.2942,32.69,55.8,"[25.299999237060547, 25.299999237060547, 22.600000381469727]",2262,45:28.9,earthquake_local,A04A.TA_20071001034527_EV
TA,A04A,BH,48.7197,-122.707,23,400,manual,0.5,6.39,866,manual,0.5,13232556,45:28.4,0.35,48.8977,-122.3572,0.5005,73.469,4.2758,19.42,,2.5,ml,,,0.29,32.43,232.5,"[28.600000381469727, 27.899999618530273, 25.0]",2078,45:30.8,earthquake_local,A04A.TA_20071001034529_EV
TA,A04A,BH,48.7197,-122.707,23,500,manual,0.95,3,803,manual,0.93,uw10723788,26:20.1,nan,48.6636667,-122.4938333,0.25,103,1.07,9.83,1.97,1.3,md,UW,,0.152,16.89,111.8,"[17.399999618530273, 17.799999237060547, 30.399999618530273]",1519,26:18.1,earthquake_local,A04A.TA_20071004102617_EV
TA,A04A,BH,48.7197,-122.707,23,400,manual,0.95,3.33,698,manual,0.93,uw10725978,27:53.2,nan,48.6543333,-122.518,0.16,98,0.41,13.41,0.65,1.3,md,UW,,0.1413,15.7,117.7,"[32.79999923706055, 34.70000076293945, 27.200000762939453]",1457,27:52.5,earthquake_local,A04A.TA_20071013132751_EV
TA,A04A,BH,48.7197,-122.707,23,700,manual,0.95,12.26,1643,manual,0.93,uw10722678,27:08.0,nan,48.5173,-123.6068,0.22,158,0.6,39.8,0.55,1.7,md,,"[[182.0, 67.0, 10000000000.0], [340.0, 25.0, 10000000000.0]]",0.6305,70.06,250.9,"[8.300000190734863, 13.5, 9.600000381469727]",3199,27:13.2,earthquake_local,A04A.TA_20071101012712_EV
TA,A04A,BH,48.7197,-122.707,23,800,manual,0.5,17.64,2119,manual,0.5,13275153,18:28.7,0.19,47.7785,-122.9291,0.6597,18.62,2.4164,55.3,,4.1,mb,,,0.95,105.95,8.9,"[33.79999923706055, 26.200000762939453, 26.100000381469727]",2783,18:38.3,earthquake_local,A04A.TA_20071127061837_EV
TA,A04A,BH,48.7197,-122.707,23,800,manual,0.95,15.88,2065,autopicker,0.51,uw10737678,05:57.2,nan,49.5948333,-122.7881667,0.29,297,0.49,9.8,0.82,1.9,md,UW,,0.8776,97.51,356.5,"[12.899999618530273, 14.300000190734863, 8.199999809265137]",3199,06:05.1,earthquake_local,A04A.TA_20071225030604_EV
TA,A04A,BH,48.7197,-122.707,23,500,manual,0.95,8.82,1190,manual,0.93,uw10733363,32:51.8,nan,48.6155,-123.016,0.16,138,0.1,53.92,0.1,2.3,md,,"[[50.0, 50.0, 10000000000.0], [320.0, 90.0, 10000000000.0]]",0.2299,25.54,242.8,"[20.600000381469727, 21.600000381469727, 15.899999618530273]",2060,32:55.6,earthquake_local,A04A.TA_20080108163254_EV
TA,A04A,BH,48.7197,-122.707,23,800,manual,0.95,6.01,1283,manual,0.93,uw10734083,08:08.1,nan,48.4196667,-122.797,0.27,44,0.65,18.93,1.12,1.6,md,UW,,0.3062,34.02,191.2,"[9.300000190734863, 10.199999809265137, 14.100000381469727]",3199,08:06.1,earthquake_local,A04A.TA_20080111060805_EV
TA,A04D,BH,48.7201,-122.7063,13,500,manual,0.95,6.46,1007,manual,0.93,uw10810618,23:40.3,nan,48.4293333,-122.543,0.12,56,0.26,22.5,0.32,1.3,md,UW,,0.3106,34.51,159.7,"[22.0, 18.799999237060547, 24.399999618530273]",2074,23:41.7,earthquake_local,A04D.TA_20100926082340_EV
TA,A04D,BH,48.7201,-122.7063,13,900,manual,0.95,8.32,1562,manual,0.93,uw10808523,06:41.9,nan,49.0548333,-122.2296667,0.18,131,0.76,10.69,0.92,2,md,UW,,0.4596,51.06,43.3,"[33.79999923706055, 30.799999237060547, 29.700000762939453]",2403,06:41.2,earthquake_local,A04D.TA_20101021150640_EV
TA,A04D,BH,48.7201,-122.7063,13,500,manual,0.95,8.95,1222,manual,0.93,uw10806393,19:38.2,nan,49.0095,-122.0811667,0.27,185,1.53,9.25,1.75,2.1,md,UW,,0.5043,56.03,55.1,"[30.899999618530273, 27.5, 24.899999618530273]",3199,19:42.2,earthquake_local,A04D.TA_20101111111941_EV
TA,A04D,BH,48.7201,-122.7063,13,900,manual,0.95,8.31,1565,manual,0.93,uw10809158,09:17.4,nan,49.058,-122.2368333,0.23,226,1,11.02,0.8,1.4,md,UW,,0.4587,50.96,42.6,"[12.600000381469727, 10.699999809265137, 8.5]",3199,09:16.7,earthquake_local,A04D.TA_20101126030915_EV
TA,A04D,BH,48.7201,-122.7063,13,500,manual,0.95,7.55,1055,manual,0.93,uw10810238,34:27.4,nan,48.7018333,-123.28,0.19,122,0.44,21.13,0.94,1,md,UW,,0.3804,42.27,267,"[17.700000762939453, 22.700000762939453, 13.100000381469727]",1623,34:29.9,earthquake_local,A04D.TA_20101210193428_EV
TA,A04D,BH,48.7201,-122.7063,13,500,manual,0.95,5.54,927,manual,0.93,uw10810273,19:28.1,nan,48.6258,-123.122,0.06,83,0.1,12.57,0.07,1.6,md,,"[[55.0, 85.0, 10000000000.0], [145.0, 90.0, 10000000000.0]]",0.2913,32.36,250.9,"[38.599998474121094, 32.599998474121094, 32.099998474121094]",1826,19:28.7,earthquake_local,A04D.TA_20101210201927_EV
TA,A04D,BH,48.7201,-122.7063,13,500,manual,0.95,5.6,937,manual,0.93,uw10811173,00:26.2,nan,48.9458333,-122.8536667,0.25,207,2.33,22.84,3.1,0.9,md,UW,,0.246,27.33,336.7,"[15.699999809265137, 14.5, 11.5]",2747,00:26.8,earthquake_local,A04D.TA_20101212120025_EV
TA,A04D,BH,48.7201,-122.7063,13,800,manual,0.95,3.44,1133,manual,0.93,uw10816598,40:44.6,nan,48.6763333,-122.4641667,0.31,93,0.73,12.8,1.49,1.6,md,UW,,0.1663,18.48,105.4,"[28.5, 28.100000381469727, 28.0]",1977,40:40.0,earthquake_local,A04D.TA_20110116064039_EV
TA,A04D,BH,48.7201,-122.7063,13,800,manual,0.95,3.61,1125,manual,0.93,uw10820993,17:12.1,nan,48.8538333,-122.6518333,0.13,243,1.42,17.16,0.92,0.6,md,UW,,0.1386,15.4,15,"[13.399999618530273, 12.600000381469727, 16.299999237060547]",2900,17:07.7,earthquake_local,A04D.TA_20110123171706_EV
TA,A04D,BH,48.7201,-122.7063,13,400,manual,0.95,9.27,1133,manual,0.93,uw10812543,59:02.2,nan,48.5942,-123.1393,0.22,72,0.3,53.66,0.1,1.9,md,,"[[150.0, 35.0, 10000000000.0], [295.0, 60.0, 10000000000.0]]",0.3136,34.84,246.1,"[39.0, 37.099998474121094, 28.5]",1935,59:07.5,earthquake_local,A04D.TA_20110205215906_EV
TA,A04D,BH,48.7201,-122.7063,13,700,manual,0.5,8.82,1405,manual,0.5,16012717,36:36.8,0.94,48.5636,-123.1136,0.6709,15.649,3.55464,50.84,0.58,3.3,mb,,,0.31,34.7,59.7,"[52.70000076293945, 58.099998474121094, 51.20000076293945]",5900,36:38.6,earthquake_local,A04D.TA_20110208163637_EV
TA,A04D,BH,48.7201,-122.7063,13,600,manual,0.5,8.82,1305,manual,0.5,16012717,36:36.8,0.94,48.5636,-123.1136,0.6709,15.649,3.55464,50.84,0.58,3.3,mb,,,0.31,34.7,59.7,"[52.70000076293945, 59.0, 54.099998474121094]",3534,36:39.6,earthquake_local,A04D.TA_20110208163638_EV
TA,A04D,BH,48.7201,-122.7063,13,500,manual,0.95,5.07,900,manual,0.93,uw10824188,58:22.8,nan,48.822,-123.0283333,0.24,164,1.42,18.29,1.41,1.6,md,UW,,0.2362,26.24,295.5,"[41.0, 38.099998474121094, 42.20000076293945]",1643,58:22.9,earthquake_local,A04D.TA_20110322005821_EV
TA,A04D,BH,48.7201,-122.7063,13,700,manual,0.95,4.03,1172,autopicker,0.65,uw10815958,10:34.6,nan,48.8108333,-122.9711667,0.56,129,0.36,-0.14,0.49,2,md,UW,,0.1974,21.93,297.4,"[33.099998474121094, 36.70000076293945, 34.099998474121094]",1935,10:31.6,earthquake_local,A04D.TA_20110430201030_EV
TA,A04D,BH,48.7201,-122.7063,13,600,manual,0.95,11.02,1457,manual,0.93,uw10812798,17:39.9,nan,48.7173333,-123.5023333,0.26,121,0.84,46.93,0.7,1.8,md,UW,,0.5272,58.57,269.4,"[20.899999618530273, 20.5, 18.600000381469727]",2224,17:44.9,earthquake_local,A04D.TA_20110501111743_EV
TA,A04D,BH,48.7201,-122.7063,13,700,manual,0.95,4.09,1158,manual,0.93,uw10813093,03:59.5,nan,48.8231667,-123.019,0.38,128,0.88,14.85,1.4,2,md,UW,,0.2312,25.68,296.5,"[37.20000076293945, 42.5, 43.900001525878906]",2221,03:56.6,earthquake_local,A04D.TA_20110503190355_EV
TA,A04D,BH,48.7201,-122.7063,13,900,manual,0.95,12.19,1777,manual,0.93,uw10818083,50:29.4,nan,48.6022,-123.7042,0.27,90,0.3,24.26,0.25,1.6,md,,"[[110.0, 55.0, 10000000000.0], [206.0, 82.0, 10000000000.0]]",0.672,74.67,259.5,"[22.0, 20.899999618530273, 20.700000762939453]",2901,50:32.6,earthquake_local,A04D.TA_20110615035031_EV
TA,A04D,BH,48.7201,-122.7063,13,600,manual,0.95,4.69,985,manual,0.93,uw10819223,55:16.4,nan,48.6105,-122.908,0.26,85,0.7,24.05,0.66,2.5,md,,"[[10.0, 80.0, 10000000000.0], [263.0, 31.0, 10000000000.0]]",0.173,19.22,230.5,"[39.599998474121094, 41.099998474121094, 39.099998474121094]",1759,55:15.1,earthquake_local,A04D.TA_20110619105514_EV
TA,A04D,BH,48.7201,-122.7063,13,400,manual,0.95,5.73,832,manual,0.93,uw10822378,03:25.2,nan,48.4815,-122.7286667,0.29,94,0.96,26.82,2.25,1.4,md,UW,,0.2393,26.58,183.5,"[19.0, 20.600000381469727, 13.199999809265137]",2528,03:26.9,earthquake_local,A04D.TA_20110630160325_EV
TA,A04D,BH,48.7201,-122.7063,13,900,manual,0.95,4.06,1252,manual,0.93,uw10822748,11:48.2,nan,48.8711667,-122.7723333,0.09,214,0.26,19.36,0.21,1.5,md,UW,,0.1574,17.49,343.9,"[36.29999923706055, 37.900001525878906, 34.599998474121094]",1928,11:43.3,earthquake_local,A04D.TA_20110714001142_EV
TA,A04D,BH,48.7201,-122.7063,13,400,manual,0.95,5.83,1060,manual,0,uw10822873,25:00.3,nan,48.5146667,-122.401,0.19,95,0.02,-0.37,0.06,2.1,md,UW,,0.2886,32.07,135.6,"[28.899999618530273, 29.899999618530273, 31.399999618530273]",2276,25:02.1,earthquake_local,A04D.TA_20110902102501_EV
TA,A04D,BH,48.7201,-122.7063,13,600,manual,0.95,5.2,948,manual,0.93,uw10831053,14:11.2,nan,48.6145,-123.0566667,0.09,147,0.12,13.1,0.21,1.5,md,UW,,0.2552,28.35,245.3,"[21.700000762939453, 17.600000381469727, 20.700000762939453]",2592,14:10.4,earthquake_local,A04D.TA_20110927231409_EV
TA,A04D,BH,48.7201,-122.7063,13,800,manual,0.95,5.1,1165,manual,0.93,uw10831063,15:26.9,nan,48.6173333,-123.063,0.1,149,0.18,12.68,0.13,1.3,md,UW,,0.2579,28.65,246.3,"[23.299999237060547, 18.799999237060547, 17.100000381469727]",2549,15:24.0,earthquake_local,A04D.TA_20110927231522_EV
TA,A04D,BH,48.7201,-122.7063,13,400,manual,0.95,2.75,653,manual,0.93,uw10827933,50:00.2,nan,48.716,-122.8797,0.24,157,0.9,12.01,0.93,1.7,md,,"[[185.0, 70.0, 10000000000.0], [275.0, 90.0, 10000000000.0]]",0.1149,12.77,267.9,"[62.20000076293945, 49.400001525878906, 41.900001525878906]",1314,49:59.0,earthquake_local,A04D.TA_20111102044958_EV
TA,A04D,BH,48.7201,-122.7063,13,500,manual,0.95,4.46,928,autopicker,0.66,uw10831558,59:57.7,nan,48.699,-122.3563333,0.26,159,6.62,2.48,,1.3,md,UW,,0.2328,25.86,95.4,"[27.299999237060547, 18.299999237060547, 17.299999237060547]",1694,59:57.1,earthquake_local,A04D.TA_20111118175956_EV
TA,A04D,BH,48.7201,-122.7063,13,600,manual,0.95,5.67,970,manual,0.93,uw10829993,07:20.1,nan,48.6373333,-122.9696667,0.11,146,0.34,27.19,0.53,0.5,md,UW,,0.1932,21.47,244.4,"[13.699999809265137, 14.199999809265137, 11.199999809265137]",2679,07:19.7,earthquake_local,A04D.TA_20111204090718_EV
TA,A04D,BH,48.7201,-122.7063,13,900,manual,0.95,2.76,1155,manual,0.93,uw10832408,23:01.0,nan,48.7735,-122.6655,0.22,145,0.88,16.43,0.75,1.2,md,UW,,0.05988,6.65,26.8,"[27.100000381469727, 29.399999618530273, 26.0]",1891,22:54.8,earthquake_local,A04D.TA_20111216022253_EV
TA,A04D,BH,48.7201,-122.7063,13,900,manual,0.97,12.84,1863,manual,0.95,uw60387441,30:27.4,0.1,48.2346,-123.3586,0.32,nan,,44.02,0.6,2,ml,,,0.6557,72.85,221.7,"[19.600000381469727, 16.600000381469727, 18.600000381469727]",3199,30:31.3,earthquake_local,A04D.TA_20120121013030_EV
TA,A04D,BH,48.7201,-122.7063,13,400,manual,1,11.94,1295,manual,0.99,uw60387646,32:27.2,0.01,48.4055,-123.4863,0.33,nan,,45.11,0.66,2.2,ml,,,0.6019,66.88,238.6,"[12.399999618530273, 24.0, 15.399999618530273]",3184,32:35.2,earthquake_local,A04D.TA_20120121143234_EV
TA,A04D,BH,48.7201,-122.7063,13,800,manual,1,6.48,1333,manual,0.79,uw60386352,39:10.2,nan,48.9285,-123.0925,0.27,220,1.02,18.24,1.24,0.91,md,UW,,0.3296,36.62,309.2,"[9.899999618530273, 15.399999618530273, 11.899999618530273]",3199,39:08.7,earthquake_local,A04D.TA_20120310053907_EV
TA,A04D,BH,48.7201,-122.7063,13,700,manual,0.84,7.31,1283,manual,1,uw60394672,47:46.5,0,48.755,-122.115,nan,79,,16.1,1.53,2.5,md,,,0.3927,43.64,85.2,"[33.70000076293945, 41.5, 34.099998474121094]",3042,47:46.8,earthquake_local,A04D.TA_20120419174745_EV
TA,A04D,BH,48.7201,-122.7063,13,800,manual,0.57,11.9,1702,manual,0.55,uw60396527,49:40.8,nan,48.4785,-123.634,0.13,78,0.35,18.62,0.88,1.1,md,UW,,0.6616,73.51,248.2,"[12.600000381469727, 14.300000190734863, 9.399999618530273]",3199,49:44.7,earthquake_local,A04D.TA_20120424204943_EV
TA,A04D,BH,48.7201,-122.7063,13,600,manual,1,6.66,1210,manual,0.6,uw60398817,00:56.3,nan,48.9808333,-123.0816667,0.29,125,0.43,10.34,4.63,1.76,md,UW,,0.36,40,316.4,"[34.099998474121094, 37.599998474121094, 33.099998474121094]",1860,00:57.0,earthquake_local,A04D.TA_20120503020055_EV
TA,A04D,BH,48.7201,-122.7063,13,500,manual,0.59,4.76,880,manual,0,uw60418991,22:49.3,nan,48.603,-123.0506667,0.07,141,0.23,12.57,0.45,0.98,md,UW,,0.2566,28.52,242.6,"[21.799999237060547, 20.700000762939453, 24.5]",2520,22:49.0,earthquake_local,A04D.TA_20120518002248_EV
TA,A04D,BH,48.7201,-122.7063,13,700,manual,1,5.68,1131,manual,0.89,uw60423871,37:59.9,nan,48.6405,-123.1288333,0.04,160,0.27,12.99,0.57,0.57,md,UW,,0.2911,32.35,253.9,"[14.600000381469727, 13.5, 16.700000762939453]",3124,37:58.6,earthquake_local,A04D.TA_20120602023757_EV
TA,A04D,BH,48.7201,-122.7063,13,700,manual,1,5.46,1158,manual,1,uw60423956,47:21.7,0.18,48.647,-123.1294,0.19,nan,,16.33,0.64,2,ml,,,0.2885,32.05,254.6,"[39.70000076293945, 37.5, 36.900001525878906]",2390,47:20.1,earthquake_local,A04D.TA_20120602144719_EV
TA,A04D,BH,48.7201,-122.7063,13,900,manual,1,5.56,1358,manual,1,uw60424101,25:36.9,nan,48.6451667,-123.1275,0.14,87,0.26,13.91,0.52,2.23,md,UW,,0.289,32.12,254.8,"[29.200000762939453, 35.0, 30.600000381469727]",2295,25:33.5,earthquake_local,A04D.TA_20120602212532_EV
TA,A04D,BH,48.7201,-122.7063,13,500,manual,0.97,5.53,955,manual,0.95,uw60424161,59:24.2,nan,48.644,-123.1265,0.12,87,0.24,13.58,0.55,1.92,md,UW,,0.2887,32.08,254.5,"[34.400001525878906, 32.29999923706055, 31.700000762939453]",2335,59:24.8,earthquake_local,A04D.TA_20120603015923_EV
TA,A04D,BH,48.7201,-122.7063,13,400,manual,0.58,5.46,850,manual,0.88,uw60424166,02:18.8,nan,48.64,-123.1265,0.05,143,0.24,12.36,0.59,0.58,md,UW,,0.2898,32.2,253.7,"[17.299999237060547, 18.299999237060547, 11.600000381469727]",2600,02:20.3,earthquake_local,A04D.TA_20120603020219_EV
TA,A04D,BH,48.7201,-122.7063,13,700,manual,0.91,5.55,1125,manual,0.57,uw60424646,43:39.1,nan,48.6408333,-123.122,0.05,143,0.32,13.23,0.54,0.4,md,UW,,0.2867,31.86,253.7,"[9.100000381469727, 9.100000381469727, 9.300000190734863]",3100,43:37.6,earthquake_local,A04D.TA_20120604154336_EV
TA,A04D,BH,48.7201,-122.7063,13,800,manual,1,3.81,1112,manual,0.97,uw60433006,57:20.7,nan,48.8738333,-122.542,0.09,112,0.39,0,0.6,0.98,md,UW,,0.1884,20.93,35.2,"[17.399999618530273, 17.600000381469727, 15.5]",2847,57:16.5,earthquake_local,A04D.TA_20120625035715_EV
TA,A04D,BH,48.7201,-122.7063,13,900,manual,0.78,5.8,1378,manual,0.76,uw60421392,45:18.0,nan,48.6406667,-122.3153333,0.27,91,0.8,21.02,2.92,0.81,md,UW,,0.271,30.12,107.3,"[16.700000762939453, 19.100000381469727, 15.100000381469727]",2094,45:14.8,earthquake_local,A04D.TA_20120703074513_EV
TA,A04D,BH,48.7201,-122.7063,13,900,manual,1,5.45,1357,manual,0.58,uw60422037,31:35.9,nan,48.6396667,-123.123,0.07,160,0.43,13.14,1.16,1.75,md,UW,,0.2877,31.96,253.5,"[27.600000381469727, 28.100000381469727, 29.600000381469727]",2173,31:32.3,earthquake_local,A04D.TA_20120704103131_EV
TA,A04D,BH,48.7201,-122.7063,13,400,manual,0.64,5.47,845,manual,0.97,uw60422317,26:45.3,nan,48.6381667,-123.1266667,0.05,159,0.25,12.17,0.7,0.38,md,UW,,0.2904,32.27,253.4,"[20.799999237060547, 16.600000381469727, 15.0]",2579,26:46.8,earthquake_local,A04D.TA_20120705112645_EV
TA,A04D,BH,48.7201,-122.7063,13,800,manual,0.71,4.63,1175,manual,1,uw60424422,09:49.6,nan,48.7351667,-122.4888333,0.17,136,0.61,25.78,0.83,1.03,md,UW,,0.1448,16.09,84.1,"[13.899999618530273, 10.800000190734863, 9.100000381469727]",2281,09:46.2,earthquake_local,A04D.TA_20120710160945_EV
TA,A04D,BH,48.7201,-122.7063,13,700,manual,1,3.98,1010,manual,1,uw60442066,03:14.9,nan,48.8415,-122.7066667,0.19,175,0.86,22.67,0.54,1.9,md,UW,,0.1215,13.5,359.9,"[30.700000762939453, 32.20000076293945, 33.599998474121094]",1735,03:11.8,earthquake_local,A04D.TA_20120717100310_EV
TA,A04D,BH,48.7201,-122.7063,13,800,manual,0.62,5.6,1235,manual,1,uw60442426,24:17.0,nan,48.6398,-123.1295,nan,133,,11.8,0.62,1.7,md,,"[[40.0, 65.0, -70.0]]",0.2918,32.42,253.8,"[22.899999618530273, 25.299999237060547, 23.5]",2620,24:14.6,earthquake_local,A04D.TA_20120718202413_EV
TA,A04D,BH,48.7201,-122.7063,13,600,manual,1,5.63,1035,manual,0.96,uw60442541,09:57.7,nan,48.6476667,-123.1381667,0.05,101,0.37,10.77,1.17,0.46,md,UW,,0.2952,32.8,255.6,"[16.5, 17.100000381469727, 14.0]",2940,09:57.3,earthquake_local,A04D.TA_20120719040956_EV
TA,A04D,BH,48.7201,-122.7063,13,700,manual,1,5.46,1159,manual,0.97,uw60444681,24:02.0,nan,48.6408333,-123.1276667,0.07,147,0.34,12.87,0.73,0.47,md,UW,,0.2903,32.26,253.9,"[24.200000762939453, 22.299999237060547, 21.200000762939453]",1905,24:00.4,earthquake_local,A04D.TA_20120724152359_EV
TA,A04D,BH,48.7201,-122.7063,13,700,manual,1,7.59,1327,manual,0.64,uw60444781,21:00.7,,48.77017,-122.10933,,,,22.2,,2.2,ml,,,0.3983,44.26,83,"[31.200000762939453, 34.29999923706055, 30.799999237060547]",2583,21:01.3,earthquake_local,A04D.TA_20120724202100_EV
TA,A04D,BH,48.7201,-122.7063,13,500,manual,1,8.39,1147,manual,0.65,uw60445206,55:50.2,0.07,48.4994,-123.2884,0.44,nan,,26.11,0.43,2.2,ml,,,0.44,48.89,239.7,"[32.5, 32.0, 33.400001525878906]",2102,55:53.6,earthquake_local,A04D.TA_20120726005552_EV
